"Longitude (x)","Latitude (y)","Station Name","Climate ID","Date/Time","Year","Month","Day","Time","Temp (°C)","Temp Flag","Dew Point Temp (°C)","Dew Point Temp Flag","Rel Hum (%)","Rel Hum Flag","Wind Dir (10s deg)","Wind Dir Flag","Wind Spd (km/h)","Wind Spd Flag","Visibility (km)","Visibility Flag","Stn Press (kPa)","Stn Press Flag","Hmdx","Hmdx Flag","Wind Chill","Wind Chill Flag","Weather"
"-89.32","48.37","THUNDER BAY A","6048262","2015-10-01 00:00","2015","10","01","00:00","1.7","","1.4","","98","","26","","5","","24.1","","100.77","","","","","","NA"
"-89.32","48.37","THUNDER BAY A","6048262","2015-10-01 01:00","2015","10","01","01:00","1.2","","0.9","","98","","24","","4","","24.1","","100.82","","","","","","Clear"
"-89.32","48.37","THUNDER BAY A","6048262","2015-10-01 02:00","2015","10","01","02:00","0.5","","0.5","","100","","28","","5","","24.1","","100.86","","","","","","NA"
"-89.32","48.37","THUNDER BAY A","6048262","2015-10-01 03:00","2015","10","01","03:00","0.6","","0.6","","100","","27","","4","","24.1","","100.89","","","","","","NA"
"-89.32","48.37","THUNDER BAY A","6048262","2015-10-01 04:00","2015","10","01","04:00","0.1","","0.1","","100","","25","","7","","24.1","","100.94","","","","","","Clear"
"-89.32","48.37","THUNDER BAY A","6048262","2015-10-01 05:00","2015","10","01","05:00","-0.6","","-0.6","","100","","25","","7","","24.1","","100.98","","","","-3","","NA"
"-89.32","48.37","THUNDER BAY A","6048262","2015-10-01 06:00","2015","10","01","06:00","-0.4","","-0.4","","100","","25","","7","","24.1","","101.06","","","","-3","","NA"
"-89.32","48.37","THUNDER BAY A","6048262","2015-10-01 07:00","2015","10","01","07:00","-0.9","","-0.9","","100","","27","","5","","32.2","","101.11","","","","-3","","Mainly Clear"
"-89.32","48.37","THUNDER BAY A","6048262","2015-10-01 08:00","2015","10","01","08:00","-0.4","","-0.4","","100","","25","","5","","32.2","","101.17","","","","-2","","NA"
"-89.32","48.37","THUNDER BAY A","6048262","2015-10-01 09:00","2015","10","01","09:00","3.0","","3.0","","100","","29","","4","","32.2","","101.20","","","","","","NA"
"-89.32","48.37","THUNDER BAY A","6048262","2015-10-01 10:00","2015","10","01","10:00","7.8","","6.3","","90","","0","","1","","32.2","","101.25","","","","","","Mainly Clear"
"-89.32","48.37","THUNDER BAY A","6048262","2015-10-01 11:00","2015","10","01","11:00","13.2","","4.9","","57","","10","","19","","32.2","","101.29","","","","","","NA"
"-89.32","48.37","THUNDER BAY A","6048262","2015-10-01 12:00","2015","10","01","12:00","12.6","","3.6","","54","","12","","17","","32.2","","101.29","","","","","","NA"
"-89.32","48.37","THUNDER BAY A","6048262","2015-10-01 13:00","2015","10","01","13:00","12.9","","2.8","","50","","10","","19","","32.2","","101.29","","","","","","Mainly Clear"
"-89.32","48.37","THUNDER BAY A","6048262","2015-10-01 14:00","2015","10","01","14:00","12.8","","3.3","","52","","12","","20","","32.2","","101.26","","","","","","NA"
"-89.32","48.37","THUNDER BAY A","6048262","2015-10-01 15:00","2015","10","01","15:00","12.8","","0.9","","44","","11","","20","","32.2","","101.25","","","","","","NA"
"-89.32","48.37","THUNDER BAY A","6048262","2015-10-01 16:00","2015","10","01","16:00","12.1","","2.3","","51","","12","","19","","32.2","","101.23","","","","","","Clear"
"-89.32","48.37","THUNDER BAY A","6048262","2015-10-01 17:00","2015","10","01","17:00","11.4","","1.7","","51","","11","","17","","32.2","","101.24","","","","","","NA"
"-89.32","48.37","THUNDER BAY A","6048262","2015-10-01 18:00","2015","10","01","18:00","10.1","","-0.7","","47","","11","","11","","32.2","","101.25","","","","","","NA"
"-89.32","48.37","THUNDER BAY A","6048262","2015-10-01 19:00","2015","10","01","19:00","7.5","","1.2","","64","","9","","5","","32.2","","101.27","","","","","","Clear"
"-89.32","48.37","THUNDER BAY A","6048262","2015-10-01 20:00","2015","10","01","20:00","2.5","","0.9","","89","","28","","5","","24.1","","101.29","","","","","","NA"
"-89.32","48.37","THUNDER BAY A","6048262","2015-10-01 21:00","2015","10","01","21:00","1.4","","0.7","","95","","28","","7","","24.1","","101.31","","","","","","NA"
"-89.32","48.37","THUNDER BAY A","6048262","2015-10-01 22:00","2015","10","01","22:00","0.7","","0.1","","96","","25","","7","","24.1","","101.32","","","","","","Clear"
"-89.32","48.37","THUNDER BAY A","6048262","2015-10-01 23:00","2015","10","01","23:00","-0.2","","-0.8","","96","","26","","6","","24.1","","101.35","","","","-2","","NA"
"-89.32","48.37","THUNDER BAY A","6048262","2015-10-02 00:00","2015","10","02","00:00","-0.2","","-0.5","","98","","26","","5","","24.1","","101.38","","","","-2","","NA"
"-89.32","48.37","THUNDER BAY A","6048262","2015-10-02 01:00","2015","10","02","01:00","-0.6","","-0.6","","100","","26","","8","","24.1","","101.39","","","","-3","","Clear"
"-89.32","48.37","THUNDER BAY A","6048262","2015-10-02 02:00","2015","10","02","02:00","-1.0","","-1.0","","100","","26","","7","","24.1","","101.41","","","","-4","","NA"
"-89.32","48.37","THUNDER BAY A","6048262","2015-10-02 03:00","2015","10","02","03:00","-1.6","","-1.6","","100","","28","","5","","24.1","","101.41","","","","-3","","NA"
"-89.32","48.37","THUNDER BAY A","6048262","2015-10-02 04:00","2015","10","02","04:00","-2.0","","-2.0","","100","","27","","6","","24.1","","101.39","","","","-4","","Clear"
"-89.32","48.37","THUNDER BAY A","6048262","2015-10-02 05:00","2015","10","02","05:00","-2.0","","-2.0","","100","","26","","7","","32.2","","101.42","","","","-5","","NA"
"-89.32","48.37","THUNDER BAY A","6048262","2015-10-02 06:00","2015","10","02","06:00","-2.3","","-2.3","","100","","25","","7","","32.2","","101.45","","","","-5","","NA"
"-89.32","48.37","THUNDER BAY A","6048262","2015-10-02 07:00","2015","10","02","07:00","-2.3","","-2.3","","100","","25","","5","","32.2","","101.48","","","","-4","","Mainly Clear"
"-89.32","48.37","THUNDER BAY A","6048262","2015-10-02 08:00","2015","10","02","08:00","-1.1","","-1.1","","100","","24","","5","","32.2","","101.53","","","","-3","","NA"
"-89.32","48.37","THUNDER BAY A","6048262","2015-10-02 09:00","2015","10","02","09:00","2.3","","1.4","","94","","29","","4","","32.2","","101.53","","","","","","NA"
"-89.32","48.37","THUNDER BAY A","6048262","2015-10-02 10:00","2015","10","02","10:00","8.6","","4.6","","76","","15","","3","","32.2","","101.52","","","","","","Mainly Clear"
"-89.32","48.37","THUNDER BAY A","6048262","2015-10-02 11:00","2015","10","02","11:00","11.8","","2.3","","52","","8","","24","","32.2","","101.50","","","","","","NA"
"-89.32","48.37","THUNDER BAY A","6048262","2015-10-02 12:00","2015","10","02","12:00","12.6","","1.6","","47","","10","","24","","32.2","","101.51","","","","","","NA"
"-89.32","48.37","THUNDER BAY A","6048262","2015-10-02 13:00","2015","10","02","13:00","12.6","","3.1","","52","","10","","26","","32.2","","101.47","","","","","","Mainly Clear"
"-89.32","48.37","THUNDER BAY A","6048262","2015-10-02 14:00","2015","10","02","14:00","12.1","","4.6","","60","","11","","17","","32.2","","101.39","","","","","","NA"
"-89.32","48.37","THUNDER BAY A","6048262","2015-10-02 15:00","2015","10","02","15:00","12.4","","3.4","","54","","9","","26","","32.2","","101.32","","","","","","NA"
"-89.32","48.37","THUNDER BAY A","6048262","2015-10-02 16:00","2015","10","02","16:00","12.3","","4.1","","57","","9","","21","","32.2","","101.30","","","","","","Mainly Clear"
"-89.32","48.37","THUNDER BAY A","6048262","2015-10-02 17:00","2015","10","02","17:00","11.2","","4.0","","61","","12","","19","","32.2","","101.26","","","","","","NA"
"-89.32","48.37","THUNDER BAY A","6048262","2015-10-02 18:00","2015","10","02","18:00","10.1","","3.0","","61","","10","","23","","32.2","","101.25","","","","","","NA"
"-89.32","48.37","THUNDER BAY A","6048262","2015-10-02 19:00","2015","10","02","19:00","7.3","","2.6","","72","","8","","16","","32.2","","101.22","","","","","","Mainly Clear"
"-89.32","48.37","THUNDER BAY A","6048262","2015-10-02 20:00","2015","10","02","20:00","6.9","","2.6","","74","","9","","14","","24.1","","101.19","","","","","","NA"
"-89.32","48.37","THUNDER BAY A","6048262","2015-10-02 21:00","2015","10","02","21:00","5.2","","2.2","","81","","1","","5","","24.1","","101.17","","","","","","NA"
"-89.32","48.37","THUNDER BAY A","6048262","2015-10-02 22:00","2015","10","02","22:00","3.5","","1.5","","87","","5","","3","","24.1","","101.15","","","","","","Mostly Cloudy"
"-89.32","48.37","THUNDER BAY A","6048262","2015-10-02 23:00","2015","10","02","23:00","0.5","","-0.1","","96","","24","","4","","24.1","","101.16","","","","","","NA"
"-89.32","48.37","THUNDER BAY A","6048262","2015-10-03 00:00","2015","10","03","00:00","0.7","","0.1","","96","","28","","4","","24.1","","101.16","","","","","","NA"
"-89.32","48.37","THUNDER BAY A","6048262","2015-10-03 01:00","2015","10","03","01:00","-0.4","","-0.7","","98","","25","","6","","24.1","","101.14","","","","-2","","Mainly Clear"
"-89.32","48.37","THUNDER BAY A","6048262","2015-10-03 02:00","2015","10","03","02:00","-1.0","","-1.3","","98","","27","","6","","24.1","","101.13","","","","-3","","NA"
"-89.32","48.37","THUNDER BAY A","6048262","2015-10-03 03:00","2015","10","03","03:00","-0.9","","-1.0","","99","","26","","9","","24.1","","101.11","","","","-4","","NA"
"-89.32","48.37","THUNDER BAY A","6048262","2015-10-03 04:00","2015","10","03","04:00","-1.3","","-1.3","","100","","30","","7","","24.1","","101.10","","","","-4","","Mainly Clear"
"-89.32","48.37","THUNDER BAY A","6048262","2015-10-03 05:00","2015","10","03","05:00","-1.8","","-1.9","","99","","30","","8","","24.1","","101.10","","","","-5","","NA"
"-89.32","48.37","THUNDER BAY A","6048262","2015-10-03 06:00","2015","10","03","06:00","-1.5","","-1.6","","99","","30","","7","","24.1","","101.12","","","","-4","","NA"
"-89.32","48.37","THUNDER BAY A","6048262","2015-10-03 07:00","2015","10","03","07:00","-0.6","","-0.7","","99","","13","","4","","32.2","","101.13","","","","-2","","Mostly Cloudy"
"-89.32","48.37","THUNDER BAY A","6048262","2015-10-03 08:00","2015","10","03","08:00","8.6","","4.3","","74","","11","","22","","32.2","","101.12","","","","","","NA"
"-89.32","48.37","THUNDER BAY A","6048262","2015-10-03 09:00","2015","10","03","09:00","10.1","","4.9","","70","","11","","22","","32.2","","101.12","","","","","","NA"
"-89.32","48.37","THUNDER BAY A","6048262","2015-10-03 10:00","2015","10","03","10:00","10.5","","4.0","","64","","9","","26","","32.2","","101.15","","","","","","Mostly Cloudy"
"-89.32","48.37","THUNDER BAY A","6048262","2015-10-03 11:00","2015","10","03","11:00","10.9","","4.0","","62","","10","","23","","32.2","","101.14","","","","","","NA"
"-89.32","48.37","THUNDER BAY A","6048262","2015-10-03 12:00","2015","10","03","12:00","11.4","","3.7","","59","","10","","25","","32.2","","101.12","","","","","","NA"
"-89.32","48.37","THUNDER BAY A","6048262","2015-10-03 13:00","2015","10","03","13:00","11.1","","2.7","","56","","10","","30","","32.2","","101.09","","","","","","Cloudy"
"-89.32","48.37","THUNDER BAY A","6048262","2015-10-03 14:00","2015","10","03","14:00","11.1","","3.0","","57","","10","","35","","32.2","","100.97","","","","","","NA"
"-89.32","48.37","THUNDER BAY A","6048262","2015-10-03 15:00","2015","10","03","15:00","11.3","","2.9","","56","","9","","34","","32.2","","100.90","","","","","","NA"
"-89.32","48.37","THUNDER BAY A","6048262","2015-10-03 16:00","2015","10","03","16:00","10.0","","1.9","","57","","8","","29","","32.2","","100.90","","","","","","Mostly Cloudy"
"-89.32","48.37","THUNDER BAY A","6048262","2015-10-03 17:00","2015","10","03","17:00","9.2","","2.3","","62","","9","","28","","32.2","","100.88","","","","","","NA"
"-89.32","48.37","THUNDER BAY A","6048262","2015-10-03 18:00","2015","10","03","18:00","8.7","","2.3","","64","","8","","26","","32.2","","100.84","","","","","","NA"
"-89.32","48.37","THUNDER BAY A","6048262","2015-10-03 19:00","2015","10","03","19:00","8.8","","1.7","","61","","10","","25","","32.2","","100.80","","","","","","Mostly Cloudy"
"-89.32","48.37","THUNDER BAY A","6048262","2015-10-03 20:00","2015","10","03","20:00","8.7","","1.2","","59","","10","","22","","24.1","","100.76","","","","","","NA"
"-89.32","48.37","THUNDER BAY A","6048262","2015-10-03 21:00","2015","10","03","21:00","8.7","","1.9","","62","","10","","24","","24.1","","100.75","","","","","","NA"
"-89.32","48.37","THUNDER BAY A","6048262","2015-10-03 22:00","2015","10","03","22:00","8.0","","1.4","","63","","13","","17","","24.1","","100.77","","","","","","Mostly Cloudy"
"-89.32","48.37","THUNDER BAY A","6048262","2015-10-03 23:00","2015","10","03","23:00","7.6","","1.9","","67","","12","","12","","24.1","","100.70","","","","","","NA"
"-89.32","48.37","THUNDER BAY A","6048262","2015-10-04 00:00","2015","10","04","00:00","7.1","","2.0","","70","","12","","11","","24.1","","100.63","","","","","","NA"
"-89.32","48.37","THUNDER BAY A","6048262","2015-10-04 01:00","2015","10","04","01:00","6.4","","2.3","","75","","10","","9","","24.1","","100.58","","","","","","Mostly Cloudy"
"-89.32","48.37","THUNDER BAY A","6048262","2015-10-04 02:00","2015","10","04","02:00","5.3","","2.8","","84","","5","","5","","24.1","","100.56","","","","","","NA"
"-89.32","48.37","THUNDER BAY A","6048262","2015-10-04 03:00","2015","10","04","03:00","5.7","","3.6","","86","","3","","4","","24.1","","100.52","","","","","","NA"
"-89.32","48.37","THUNDER BAY A","6048262","2015-10-04 04:00","2015","10","04","04:00","5.2","","3.9","","91","","31","","5","","24.1","","100.50","","","","","","Cloudy"
"-89.32","48.37","THUNDER BAY A","6048262","2015-10-04 05:00","2015","10","04","05:00","6.0","","3.9","","86","","32","","4","","24.1","","100.49","","","","","","NA"
"-89.32","48.37","THUNDER BAY A","6048262","2015-10-04 06:00","2015","10","04","06:00","4.3","","3.4","","94","","26","","4","","24.1","","100.51","","","","","","NA"
"-89.32","48.37","THUNDER BAY A","6048262","2015-10-04 07:00","2015","10","04","07:00","3.4","","3.3","","99","","28","","3","","32.2","","100.50","","","","","","Mostly Cloudy"
"-89.32","48.37","THUNDER BAY A","6048262","2015-10-04 08:00","2015","10","04","08:00","2.8","","2.5","","98","","25","","6","","32.2","","100.53","","","","","","NA"
"-89.32","48.37","THUNDER BAY A","6048262","2015-10-04 09:00","2015","10","04","09:00","8.8","","5.2","","78","","36","","2","","32.2","","100.52","","","","","","NA"
"-89.32","48.37","THUNDER BAY A","6048262","2015-10-04 10:00","2015","10","04","10:00","10.4","","6.0","","74","","8","","16","","32.2","","100.50","","","","","","Mostly Cloudy"
"-89.32","48.37","THUNDER BAY A","6048262","2015-10-04 11:00","2015","10","04","11:00","10.5","","5.9","","73","","8","","14","","32.2","","100.47","","","","","","NA"
"-89.32","48.37","THUNDER BAY A","6048262","2015-10-04 12:00","2015","10","04","12:00","10.8","","5.6","","70","","7","","10","","32.2","","100.43","","","","","","NA"
"-89.32","48.37","THUNDER BAY A","6048262","2015-10-04 13:00","2015","10","04","13:00","11.4","","4.7","","63","","9","","11","","32.2","","100.37","","","","","","Mostly Cloudy"
"-89.32","48.37","THUNDER BAY A","6048262","2015-10-04 14:00","2015","10","04","14:00","11.0","","3.1","","58","","15","","4","","32.2","","100.33","","","","","","NA"
"-89.32","48.37","THUNDER BAY A","6048262","2015-10-04 15:00","2015","10","04","15:00","11.7","","3.5","","57","","10","","6","","32.2","","100.25","","","","","","NA"
"-89.32","48.37","THUNDER BAY A","6048262","2015-10-04 16:00","2015","10","04","16:00","11.5","","3.6","","58","","12","","3","","32.2","","100.21","","","","","","Mostly Cloudy"
"-89.32","48.37","THUNDER BAY A","6048262","2015-10-04 17:00","2015","10","04","17:00","11.4","","3.5","","58","","15","","8","","32.2","","100.18","","","","","","NA"
"-89.32","48.37","THUNDER BAY A","6048262","2015-10-04 18:00","2015","10","04","18:00","10.6","","3.0","","59","","18","","7","","32.2","","100.17","","","","","","NA"
"-89.32","48.37","THUNDER BAY A","6048262","2015-10-04 19:00","2015","10","04","19:00","9.1","","3.3","","67","","19","","4","","32.2","","100.17","","","","","","Mostly Cloudy"
"-89.32","48.37","THUNDER BAY A","6048262","2015-10-04 20:00","2015","10","04","20:00","4.6","","3.6","","93","","31","","4","","24.1","","100.16","","","","","","NA"
"-89.32","48.37","THUNDER BAY A","6048262","2015-10-04 21:00","2015","10","04","21:00","3.1","","2.7","","97","","30","","4","","24.1","","100.13","","","","","","NA"
"-89.32","48.37","THUNDER BAY A","6048262","2015-10-04 22:00","2015","10","04","22:00","1.8","","1.4","","97","","29","","7","","24.1","","100.13","","","","","","Mainly Clear"
"-89.32","48.37","THUNDER BAY A","6048262","2015-10-04 23:00","2015","10","04","23:00","1.2","","0.8","","97","","25","","7","","24.1","","100.13","","","","","","NA"
"-89.32","48.37","THUNDER BAY A","6048262","2015-10-05 00:00","2015","10","05","00:00","0.9","","0.8","","99","","27","","7","","24.1","","100.12","","","","","","NA"
"-89.32","48.37","THUNDER BAY A","6048262","2015-10-05 01:00","2015","10","05","01:00","0.9","","0.8","","99","","24","","7","","24.1","","100.10","","","","","","Mostly Cloudy"
"-89.32","48.37","THUNDER BAY A","6048262","2015-10-05 02:00","2015","10","05","02:00","0.5","","0.5","","100","","29","","7","","24.1","","100.08","","","","","","NA"
"-89.32","48.37","THUNDER BAY A","6048262","2015-10-05 03:00","2015","10","05","03:00","1.3","","1.3","","100","","31","","6","","24.1","","100.05","","","","","","NA"
"-89.32","48.37","THUNDER BAY A","6048262","2015-10-05 04:00","2015","10","05","04:00","2.5","","2.4","","99","","24","","6","","24.1","","100.04","","","","","","Cloudy"
"-89.32","48.37","THUNDER BAY A","6048262","2015-10-05 05:00","2015","10","05","05:00","3.1","","3.0","","99","","25","","5","","24.1","","100.05","","","","","","NA"
"-89.32","48.37","THUNDER BAY A","6048262","2015-10-05 06:00","2015","10","05","06:00","2.5","","2.5","","100","","36","","3","","8.1","","100.04","","","","","","Fog"
"-89.32","48.37","THUNDER BAY A","6048262","2015-10-05 07:00","2015","10","05","07:00","3.1","","3.0","","99","","30","","4","","32.2","","100.03","","","","","","Mostly Cloudy"
"-89.32","48.37","THUNDER BAY A","6048262","2015-10-05 08:00","2015","10","05","08:00","4.2","","3.8","","97","","25","","5","","32.2","","100.01","","","","","","NA"
"-89.32","48.37","THUNDER BAY A","6048262","2015-10-05 09:00","2015","10","05","09:00","6.2","","5.0","","92","","25","","5","","32.2","","100.01","","","","","","NA"
"-89.32","48.37","THUNDER BAY A","6048262","2015-10-05 10:00","2015","10","05","10:00","8.0","","6.2","","88","","36","","2","","32.2","","99.98","","","","","","Mostly Cloudy"
"-89.32","48.37","THUNDER BAY A","6048262","2015-10-05 11:00","2015","10","05","11:00","10.2","","6.8","","79","","11","","3","","32.2","","99.94","","","","","","NA"
"-89.32","48.37","THUNDER BAY A","6048262","2015-10-05 12:00","2015","10","05","12:00","13.1","","7.4","","68","","8","","4","","32.2","","99.87","","","","","","NA"
"-89.32","48.37","THUNDER BAY A","6048262","2015-10-05 13:00","2015","10","05","13:00","13.4","","8.1","","70","","8","","13","","32.2","","99.79","","","","","","Mostly Cloudy"
"-89.32","48.37","THUNDER BAY A","6048262","2015-10-05 14:00","2015","10","05","14:00","13.6","","8.5","","71","","9","","13","","32.2","","99.71","","","","","","NA"
"-89.32","48.37","THUNDER BAY A","6048262","2015-10-05 15:00","2015","10","05","15:00","13.4","","8.5","","72","","8","","15","","32.2","","99.63","","","","","","NA"
"-89.32","48.37","THUNDER BAY A","6048262","2015-10-05 16:00","2015","10","05","16:00","14.2","","7.3","","63","","16","","14","","32.2","","99.57","","","","","","Mostly Cloudy"
"-89.32","48.37","THUNDER BAY A","6048262","2015-10-05 17:00","2015","10","05","17:00","13.2","","7.3","","67","","18","","15","","32.2","","99.54","","","","","","NA"
"-89.32","48.37","THUNDER BAY A","6048262","2015-10-05 18:00","2015","10","05","18:00","12.2","","7.1","","71","","21","","15","","32.2","","99.53","","","","","","NA"
"-89.32","48.37","THUNDER BAY A","6048262","2015-10-05 19:00","2015","10","05","19:00","11.7","","6.9","","72","","20","","10","","32.2","","99.50","","","","","","Mostly Cloudy"
"-89.32","48.37","THUNDER BAY A","6048262","2015-10-05 20:00","2015","10","05","20:00","11.4","","7.0","","74","","21","","10","","24.1","","99.51","","","","","","NA"
"-89.32","48.37","THUNDER BAY A","6048262","2015-10-05 21:00","2015","10","05","21:00","10.9","","7.1","","77","","0","","1","","24.1","","99.48","","","","","","NA"
"-89.32","48.37","THUNDER BAY A","6048262","2015-10-05 22:00","2015","10","05","22:00","11.2","","7.0","","75","","24","","4","","24.1","","99.45","","","","","","Cloudy"
"-89.32","48.37","THUNDER BAY A","6048262","2015-10-05 23:00","2015","10","05","23:00","11.2","","7.4","","77","","20","","3","","24.1","","99.42","","","","","","NA"
"-89.32","48.37","THUNDER BAY A","6048262","2015-10-06 00:00","2015","10","06","00:00","11.5","","7.6","","77","","23","","10","","24.1","","99.41","","","","","","NA"
"-89.32","48.37","THUNDER BAY A","6048262","2015-10-06 01:00","2015","10","06","01:00","11.4","","7.5","","77","","24","","9","","24.1","","99.37","","","","","","Cloudy"
"-89.32","48.37","THUNDER BAY A","6048262","2015-10-06 02:00","2015","10","06","02:00","10.8","","7.9","","82","","29","","5","","24.1","","99.34","","","","","","NA"
"-89.32","48.37","THUNDER BAY A","6048262","2015-10-06 03:00","2015","10","06","03:00","9.2","","7.8","","91","","28","","8","","24.1","","99.33","","","","","","NA"
"-89.32","48.37","THUNDER BAY A","6048262","2015-10-06 04:00","2015","10","06","04:00","6.9","","6.5","","97","","31","","4","","24.1","","99.31","","","","","","Mainly Clear"
"-89.32","48.37","THUNDER BAY A","6048262","2015-10-06 05:00","2015","10","06","05:00","5.7","","5.6","","99","","36","","1","","24.1","","99.32","","","","","","NA"
"-89.32","48.37","THUNDER BAY A","6048262","2015-10-06 06:00","2015","10","06","06:00","4.4","","4.3","","99","","36","","3","","24.1","","99.33","","","","","","NA"
"-89.32","48.37","THUNDER BAY A","6048262","2015-10-06 07:00","2015","10","06","07:00","3.3","","3.2","","99","","26","","7","","32.2","","99.33","","","","","","Clear"
"-89.32","48.37","THUNDER BAY A","6048262","2015-10-06 08:00","2015","10","06","08:00","7.8","","7.7","","99","","24","","10","","32.2","","99.32","","","","","","NA"
"-89.32","48.37","THUNDER BAY A","6048262","2015-10-06 09:00","2015","10","06","09:00","11.4","","8.3","","81","","25","","11","","32.2","","99.34","","","","","","NA"
"-89.32","48.37","THUNDER BAY A","6048262","2015-10-06 10:00","2015","10","06","10:00","14.0","","8.5","","69","","24","","16","","32.2","","99.34","","","","","","Mainly Clear"
"-89.32","48.37","THUNDER BAY A","6048262","2015-10-06 11:00","2015","10","06","11:00","15.5","","7.4","","58","","27","","21","","32.2","","99.30","","","","","","NA"
"-89.32","48.37","THUNDER BAY A","6048262","2015-10-06 12:00","2015","10","06","12:00","16.1","","6.3","","52","","28","","27","","32.2","","99.27","","","","","","NA"
"-89.32","48.37","THUNDER BAY A","6048262","2015-10-06 13:00","2015","10","06","13:00","16.9","","6.2","","49","","28","","22","","32.2","","99.24","","","","","","Mostly Cloudy"
"-89.32","48.37","THUNDER BAY A","6048262","2015-10-06 14:00","2015","10","06","14:00","18.0","","5.7","","44","","29","","26","","32.2","","99.17","","","","","","NA"
"-89.32","48.37","THUNDER BAY A","6048262","2015-10-06 15:00","2015","10","06","15:00","16.6","","6.2","","50","","31","","24","","32.2","","99.15","","","","","","NA"
"-89.32","48.37","THUNDER BAY A","6048262","2015-10-06 16:00","2015","10","06","16:00","16.2","","5.9","","50","","31","","28","","32.2","","99.17","","","","","","Mostly Cloudy"
"-89.32","48.37","THUNDER BAY A","6048262","2015-10-06 17:00","2015","10","06","17:00","14.4","","4.5","","51","","29","","25","","32.2","","99.23","","","","","","NA"
"-89.32","48.37","THUNDER BAY A","6048262","2015-10-06 18:00","2015","10","06","18:00","12.4","","3.9","","56","","27","","18","","32.2","","99.27","","","","","","NA"
"-89.32","48.37","THUNDER BAY A","6048262","2015-10-06 19:00","2015","10","06","19:00","10.0","","4.4","","68","","28","","12","","32.2","","99.31","","","","","","Mainly Clear"
"-89.32","48.37","THUNDER BAY A","6048262","2015-10-06 20:00","2015","10","06","20:00","10.6","","5.0","","68","","29","","12","","24.1","","99.34","","","","","","NA"
"-89.32","48.37","THUNDER BAY A","6048262","2015-10-06 21:00","2015","10","06","21:00","9.5","","2.2","","60","","31","","8","","24.1","","99.43","","","","","","NA"
"-89.32","48.37","THUNDER BAY A","6048262","2015-10-06 22:00","2015","10","06","22:00","7.9","","0.9","","61","","28","","9","","24.1","","99.48","","","","","","Mainly Clear"
"-89.32","48.37","THUNDER BAY A","6048262","2015-10-06 23:00","2015","10","06","23:00","5.6","","1.2","","73","","28","","7","","24.1","","99.53","","","","","","NA"
"-89.32","48.37","THUNDER BAY A","6048262","2015-10-07 00:00","2015","10","07","00:00","2.5","","0.1","","84","","24","","8","","24.1","","99.55","","","","","","NA"
"-89.32","48.37","THUNDER BAY A","6048262","2015-10-07 01:00","2015","10","07","01:00","2.7","","0.8","","87","","36","","3","","24.1","","99.56","","","","","","Mainly Clear"
"-89.32","48.37","THUNDER BAY A","6048262","2015-10-07 02:00","2015","10","07","02:00","3.7","","2.1","","89","","33","","6","","24.1","","99.60","","","","","","NA"
"-89.32","48.37","THUNDER BAY A","6048262","2015-10-07 03:00","2015","10","07","03:00","2.4","","1.2","","92","","26","","5","","24.1","","99.67","","","","","","NA"
"-89.32","48.37","THUNDER BAY A","6048262","2015-10-07 04:00","2015","10","07","04:00","2.0","","1.3","","95","","29","","7","","24.1","","99.69","","","","","","Mainly Clear"
"-89.32","48.37","THUNDER BAY A","6048262","2015-10-07 05:00","2015","10","07","05:00","0.5","","0.4","","99","","28","","5","","24.1","","99.75","","","","","","NA"
"-89.32","48.37","THUNDER BAY A","6048262","2015-10-07 06:00","2015","10","07","06:00","-0.8","","-0.8","","100","","30","","9","","32.2","","99.83","","","","-4","","NA"
"-89.32","48.37","THUNDER BAY A","6048262","2015-10-07 07:00","2015","10","07","07:00","-0.6","","-0.6","","100","","29","","9","","32.2","","99.88","","","","-4","","Clear"
"-89.32","48.37","THUNDER BAY A","6048262","2015-10-07 08:00","2015","10","07","08:00","1.2","","0.6","","96","","30","","8","","32.2","","99.97","","","","","","NA"
"-89.32","48.37","THUNDER BAY A","6048262","2015-10-07 09:00","2015","10","07","09:00","5.5","","2.3","","80","","30","","10","","32.2","","100.01","","","","","","NA"
"-89.32","48.37","THUNDER BAY A","6048262","2015-10-07 10:00","2015","10","07","10:00","8.1","","1.7","","64","","35","","6","","32.2","","100.04","","","","","","Mainly Clear"
"-89.32","48.37","THUNDER BAY A","6048262","2015-10-07 11:00","2015","10","07","11:00","8.9","","1.1","","58","","33","","12","","32.2","","100.04","","","","","","NA"
"-89.32","48.37","THUNDER BAY A","6048262","2015-10-07 12:00","2015","10","07","12:00","10.8","","-0.3","","46","","36","","5","","32.2","","100.03","","","","","","NA"
"-89.32","48.37","THUNDER BAY A","6048262","2015-10-07 13:00","2015","10","07","13:00","11.8","","-0.3","","43","","36","","8","","32.2","","100.01","","","","","","Mainly Clear"
"-89.32","48.37","THUNDER BAY A","6048262","2015-10-07 14:00","2015","10","07","14:00","12.3","","-0.9","","40","","36","","2","","32.2","","99.97","","","","","","NA"
"-89.32","48.37","THUNDER BAY A","6048262","2015-10-07 15:00","2015","10","07","15:00","12.8","","-1.1","","38","","33","","6","","32.2","","99.87","","","","","","NA"
"-89.32","48.37","THUNDER BAY A","6048262","2015-10-07 16:00","2015","10","07","16:00","12.4","","0.2","","43","","20","","10","","32.2","","99.83","","","","","","Mostly Cloudy"
"-89.32","48.37","THUNDER BAY A","6048262","2015-10-07 17:00","2015","10","07","17:00","10.4","","3.0","","60","","18","","18","","32.2","","99.80","","","","","","NA"
"-89.32","48.37","THUNDER BAY A","6048262","2015-10-07 18:00","2015","10","07","18:00","9.1","","2.7","","64","","36","","2","","32.2","","99.74","","","","","","NA"
"-89.32","48.37","THUNDER BAY A","6048262","2015-10-07 19:00","2015","10","07","19:00","8.1","","3.0","","70","","25","","5","","24.1","","99.73","","","","","","Mostly Cloudy"
"-89.32","48.37","THUNDER BAY A","6048262","2015-10-07 20:00","2015","10","07","20:00","7.5","","3.0","","73","","23","","8","","24.1","","99.73","","","","","","NA"
"-89.32","48.37","THUNDER BAY A","6048262","2015-10-07 21:00","2015","10","07","21:00","5.7","","3.2","","84","","28","","4","","24.1","","99.78","","","","","","NA"
"-89.32","48.37","THUNDER BAY A","6048262","2015-10-07 22:00","2015","10","07","22:00","5.4","","3.3","","86","","35","","3","","24.1","","99.74","","","","","","Cloudy"
"-89.32","48.37","THUNDER BAY A","6048262","2015-10-07 23:00","2015","10","07","23:00","4.1","","3.2","","94","","30","","3","","24.1","","99.70","","","","","","NA"
"-89.32","48.37","THUNDER BAY A","6048262","2015-10-08 00:00","2015","10","08","00:00","4.8","","3.6","","92","","36","","2","","24.1","","99.61","","","","","","NA"
"-89.32","48.37","THUNDER BAY A","6048262","2015-10-08 01:00","2015","10","08","01:00","4.8","","3.9","","94","","36","","2","","24.1","","99.50","","","","","","Cloudy"
"-89.32","48.37","THUNDER BAY A","6048262","2015-10-08 02:00","2015","10","08","02:00","6.2","","4.9","","91","","5","","11","","19.3","","99.45","","","","","","Rain Showers"
"-89.32","48.37","THUNDER BAY A","6048262","2015-10-08 03:00","2015","10","08","03:00","7.3","","5.8","","90","","11","","12","","24.1","","99.36","","","","","","NA"
"-89.32","48.37","THUNDER BAY A","6048262","2015-10-08 04:00","2015","10","08","04:00","7.7","","6.3","","91","","9","","10","","24.1","","99.26","","","","","","Cloudy"
"-89.32","48.37","THUNDER BAY A","6048262","2015-10-08 05:00","2015","10","08","05:00","8.0","","6.8","","92","","10","","11","","8.1","","99.20","","","","","","Rain,Fog"
"-89.32","48.37","THUNDER BAY A","6048262","2015-10-08 06:00","2015","10","08","06:00","9.0","","8.3","","95","","11","","20","","12.9","","99.05","","","","","","Rain"
"-89.32","48.37","THUNDER BAY A","6048262","2015-10-08 07:00","2015","10","08","07:00","9.1","","8.7","","97","","10","","13","","9.7","","98.99","","","","","","Rain,Fog"
"-89.32","48.37","THUNDER BAY A","6048262","2015-10-08 08:00","2015","10","08","08:00","9.1","","9.0","","99","","9","","12","","4.8","","98.94","","","","","","Rain,Fog"
"-89.32","48.37","THUNDER BAY A","6048262","2015-10-08 09:00","2015","10","08","09:00","9.3","","9.2","","99","","7","","5","","3.2","","98.93","","","","","","Rain,Fog"
"-89.32","48.37","THUNDER BAY A","6048262","2015-10-08 10:00","2015","10","08","10:00","9.4","","9.1","","98","","9","","13","","6.4","","98.87","","","","","","Rain,Fog"
"-89.32","48.37","THUNDER BAY A","6048262","2015-10-08 11:00","2015","10","08","11:00","9.6","","9.3","","98","","5","","13","","3.2","","98.86","","","","","","Rain,Fog"
"-89.32","48.37","THUNDER BAY A","6048262","2015-10-08 12:00","2015","10","08","12:00","9.7","","9.4","","98","","10","","13","","4.8","","98.86","","","","","","Rain,Fog"
"-89.32","48.37","THUNDER BAY A","6048262","2015-10-08 13:00","2015","10","08","13:00","10.2","","9.9","","98","","5","","13","","3.2","","98.82","","","","","","Rain,Fog"
"-89.32","48.37","THUNDER BAY A","6048262","2015-10-08 14:00","2015","10","08","14:00","10.0","","9.7","","98","","3","","16","","3.2","","98.81","","","","","","Drizzle,Fog"
"-89.32","48.37","THUNDER BAY A","6048262","2015-10-08 15:00","2015","10","08","15:00","10.7","","9.9","","95","","3","","9","","16.1","","98.81","","","","","","NA"
"-89.32","48.37","THUNDER BAY A","6048262","2015-10-08 16:00","2015","10","08","16:00","11.8","","10.4","","91","","2","","9","","24.1","","98.85","","","","","","Cloudy"
"-89.32","48.37","THUNDER BAY A","6048262","2015-10-08 17:00","2015","10","08","17:00","10.9","","9.3","","90","","36","","12","","16.1","","98.92","","","","","","NA"
"-89.32","48.37","THUNDER BAY A","6048262","2015-10-08 18:00","2015","10","08","18:00","10.3","","8.9","","91","","35","","10","","24.1","","99.00","","","","","","NA"
"-89.32","48.37","THUNDER BAY A","6048262","2015-10-08 19:00","2015","10","08","19:00","9.9","","8.5","","91","","36","","11","","24.1","","99.10","","","","","","Cloudy"
"-89.32","48.37","THUNDER BAY A","6048262","2015-10-08 20:00","2015","10","08","20:00","9.5","","8.4","","93","","1","","7","","24.1","","99.21","","","","","","NA"
"-89.32","48.37","THUNDER BAY A","6048262","2015-10-08 21:00","2015","10","08","21:00","9.1","","7.9","","92","","36","","5","","24.1","","99.26","","","","","","NA"
"-89.32","48.37","THUNDER BAY A","6048262","2015-10-08 22:00","2015","10","08","22:00","8.6","","7.4","","92","","29","","4","","24.1","","99.33","","","","","","Cloudy"
"-89.32","48.37","THUNDER BAY A","6048262","2015-10-08 23:00","2015","10","08","23:00","8.1","","7.2","","94","","25","","7","","24.1","","99.37","","","","","","NA"
"-89.32","48.37","THUNDER BAY A","6048262","2015-10-09 00:00","2015","10","09","00:00","7.4","","6.8","","96","","28","","10","","24.1","","99.43","","","","","","NA"
"-89.32","48.37","THUNDER BAY A","6048262","2015-10-09 01:00","2015","10","09","01:00","6.9","","6.3","","96","","29","","9","","24.1","","99.45","","","","","","Cloudy"
"-89.32","48.37","THUNDER BAY A","6048262","2015-10-09 02:00","2015","10","09","02:00","5.2","","4.9","","98","","28","","11","","24.1","","99.45","","","","","","NA"
"-89.32","48.37","THUNDER BAY A","6048262","2015-10-09 03:00","2015","10","09","03:00","5.7","","5.3","","97","","27","","10","","24.1","","99.47","","","","","","NA"
"-89.32","48.37","THUNDER BAY A","6048262","2015-10-09 04:00","2015","10","09","04:00","6.3","","5.4","","94","","29","","9","","24.1","","99.51","","","","","","Cloudy"
"-89.32","48.37","THUNDER BAY A","6048262","2015-10-09 05:00","2015","10","09","05:00","5.4","","5.0","","97","","28","","7","","24.1","","99.52","","","","","","NA"
"-89.32","48.37","THUNDER BAY A","6048262","2015-10-09 06:00","2015","10","09","06:00","3.9","","3.8","","99","","26","","4","","24.1","","99.56","","","","","","NA"
"-89.32","48.37","THUNDER BAY A","6048262","2015-10-09 07:00","2015","10","09","07:00","2.3","","2.3","","100","","23","","10","","32.2","","99.60","","","","","","Mainly Clear"
"-89.32","48.37","THUNDER BAY A","6048262","2015-10-09 08:00","2015","10","09","08:00","4.1","","4.1","","100","","24","","9","","32.2","","99.65","","","","","","NA"
"-89.32","48.37","THUNDER BAY A","6048262","2015-10-09 09:00","2015","10","09","09:00","8.0","","6.3","","89","","27","","11","","32.2","","99.73","","","","","","NA"
"-89.32","48.37","THUNDER BAY A","6048262","2015-10-09 10:00","2015","10","09","10:00","10.1","","6.1","","76","","31","","23","","32.2","","99.80","","","","","","Mainly Clear"
"-89.32","48.37","THUNDER BAY A","6048262","2015-10-09 11:00","2015","10","09","11:00","10.7","","5.5","","70","","33","","23","","32.2","","99.85","","","","","","NA"
"-89.32","48.37","THUNDER BAY A","6048262","2015-10-09 12:00","2015","10","09","12:00","12.3","","5.3","","62","","30","","16","","32.2","","99.86","","","","","","NA"
"-89.32","48.37","THUNDER BAY A","6048262","2015-10-09 13:00","2015","10","09","13:00","13.1","","3.0","","50","","34","","8","","32.2","","99.84","","","","","","Mostly Cloudy"
"-89.32","48.37","THUNDER BAY A","6048262","2015-10-09 14:00","2015","10","09","14:00","12.5","","3.5","","54","","36","","10","","32.2","","99.80","","","","","","NA"
"-89.32","48.37","THUNDER BAY A","6048262","2015-10-09 15:00","2015","10","09","15:00","13.1","","0.2","","41","","32","","14","","32.2","","99.74","","","","","","NA"
"-89.32","48.37","THUNDER BAY A","6048262","2015-10-09 16:00","2015","10","09","16:00","12.9","","2.5","","49","","29","","15","","32.2","","99.75","","","","","","Cloudy"
"-89.32","48.37","THUNDER BAY A","6048262","2015-10-09 17:00","2015","10","09","17:00","12.1","","2.3","","51","","28","","11","","32.2","","99.75","","","","","","NA"
"-89.32","48.37","THUNDER BAY A","6048262","2015-10-09 18:00","2015","10","09","18:00","9.6","","3.4","","65","","24","","5","","32.2","","99.73","","","","","","NA"
"-89.32","48.37","THUNDER BAY A","6048262","2015-10-09 19:00","2015","10","09","19:00","7.5","","4.6","","82","","27","","4","","24.1","","99.72","","","","","","Cloudy"
"-89.32","48.37","THUNDER BAY A","6048262","2015-10-09 20:00","2015","10","09","20:00","6.7","","4.9","","88","","30","","5","","24.1","","99.71","","","","","","NA"
"-89.32","48.37","THUNDER BAY A","6048262","2015-10-09 21:00","2015","10","09","21:00","6.2","","5.0","","92","","29","","5","","24.1","","99.66","","","","","","NA"
"-89.32","48.37","THUNDER BAY A","6048262","2015-10-09 22:00","2015","10","09","22:00","5.1","","4.5","","96","","28","","3","","24.1","","99.63","","","","","","Mostly Cloudy"
"-89.32","48.37","THUNDER BAY A","6048262","2015-10-09 23:00","2015","10","09","23:00","5.4","","4.5","","94","","30","","4","","24.1","","99.61","","","","","","NA"
"-89.32","48.37","THUNDER BAY A","6048262","2015-10-10 00:00","2015","10","10","00:00","4.5","","4.1","","97","","29","","3","","24.1","","99.52","","","","","","NA"
"-89.32","48.37","THUNDER BAY A","6048262","2015-10-10 01:00","2015","10","10","01:00","5.4","","4.5","","94","","31","","5","","24.1","","99.40","","","","","","Cloudy"
"-89.32","48.37","THUNDER BAY A","6048262","2015-10-10 02:00","2015","10","10","02:00","4.9","","4.3","","96","","4","","4","","24.1","","99.36","","","","","","NA"
"-89.32","48.37","THUNDER BAY A","6048262","2015-10-10 03:00","2015","10","10","03:00","4.6","","4.3","","98","","36","","2","","24.1","","99.29","","","","","","NA"
"-89.32","48.37","THUNDER BAY A","6048262","2015-10-10 04:00","2015","10","10","04:00","4.6","","4.3","","98","","36","","1","","24.1","","99.19","","","","","","Cloudy"
"-89.32","48.37","THUNDER BAY A","6048262","2015-10-10 05:00","2015","10","10","05:00","4.0","","4.0","","100","","26","","5","","24.1","","99.08","","","","","","NA"
"-89.32","48.37","THUNDER BAY A","6048262","2015-10-10 06:00","2015","10","10","06:00","7.7","","5.4","","85","","23","","14","","24.1","","98.98","","","","","","NA"
"-89.32","48.37","THUNDER BAY A","6048262","2015-10-10 07:00","2015","10","10","07:00","8.2","","5.8","","85","","23","","12","","32.2","","98.88","","","","","","Mostly Cloudy"
"-89.32","48.37","THUNDER BAY A","6048262","2015-10-10 08:00","2015","10","10","08:00","9.2","","7.0","","86","","24","","15","","32.2","","98.79","","","","","","NA"
"-89.32","48.37","THUNDER BAY A","6048262","2015-10-10 09:00","2015","10","10","09:00","10.3","","7.2","","81","","23","","14","","32.2","","98.68","","","","","","NA"
"-89.32","48.37","THUNDER BAY A","6048262","2015-10-10 10:00","2015","10","10","10:00","12.0","","7.6","","74","","23","","14","","32.2","","98.60","","","","","","Cloudy"
"-89.32","48.37","THUNDER BAY A","6048262","2015-10-10 11:00","2015","10","10","11:00","13.5","","7.6","","67","","22","","21","","32.2","","98.41","","","","","","NA"
"-89.32","48.37","THUNDER BAY A","6048262","2015-10-10 12:00","2015","10","10","12:00","14.8","","7.9","","63","","23","","28","","32.2","","98.25","","","","","","NA"
"-89.32","48.37","THUNDER BAY A","6048262","2015-10-10 13:00","2015","10","10","13:00","15.8","","8.6","","62","","23","","18","","32.2","","98.13","","","","","","Cloudy"
"-89.32","48.37","THUNDER BAY A","6048262","2015-10-10 14:00","2015","10","10","14:00","16.2","","8.3","","59","","23","","21","","32.2","","97.99","","","","","","NA"
"-89.32","48.37","THUNDER BAY A","6048262","2015-10-10 15:00","2015","10","10","15:00","16.6","","8.4","","58","","23","","14","","32.2","","97.89","","","","","","NA"
"-89.32","48.37","THUNDER BAY A","6048262","2015-10-10 16:00","2015","10","10","16:00","17.0","","8.3","","56","","22","","13","","32.2","","97.79","","","","","","Cloudy"
"-89.32","48.37","THUNDER BAY A","6048262","2015-10-10 17:00","2015","10","10","17:00","16.6","","8.9","","60","","24","","16","","32.2","","97.76","","","","","","NA"
"-89.32","48.37","THUNDER BAY A","6048262","2015-10-10 18:00","2015","10","10","18:00","15.0","","9.0","","67","","24","","10","","32.2","","97.69","","","","","","NA"
"-89.32","48.37","THUNDER BAY A","6048262","2015-10-10 19:00","2015","10","10","19:00","12.8","","9.3","","79","","24","","8","","32.2","","97.73","","","","","","Mostly Cloudy"
"-89.32","48.37","THUNDER BAY A","6048262","2015-10-10 20:00","2015","10","10","20:00","11.3","","8.9","","85","","23","","6","","24.1","","97.71","","","","","","NA"
"-89.32","48.37","THUNDER BAY A","6048262","2015-10-10 21:00","2015","10","10","21:00","10.0","","8.8","","92","","32","","5","","24.1","","97.69","","","","","","NA"
"-89.32","48.37","THUNDER BAY A","6048262","2015-10-10 22:00","2015","10","10","22:00","8.2","","7.6","","96","","31","","5","","24.1","","97.66","","","","","","Mainly Clear"
"-89.32","48.37","THUNDER BAY A","6048262","2015-10-10 23:00","2015","10","10","23:00","7.1","","7.0","","99","","28","","5","","24.1","","97.65","","","","","","NA"
"-89.32","48.37","THUNDER BAY A","6048262","2015-10-11 00:00","2015","10","11","00:00","6.3","","6.0","","98","","36","","3","","24.1","","97.65","","","","","","NA"
"-89.32","48.37","THUNDER BAY A","6048262","2015-10-11 01:00","2015","10","11","01:00","5.7","","5.6","","99","","36","","2","","24.1","","97.61","","","","","","Clear"
"-89.32","48.37","THUNDER BAY A","6048262","2015-10-11 02:00","2015","10","11","02:00","5.4","","5.3","","99","","36","","2","","24.1","","97.56","","","","","","NA"
"-89.32","48.37","THUNDER BAY A","6048262","2015-10-11 03:00","2015","10","11","03:00","4.6","","4.5","","99","","29","","4","","24.1","","97.52","","","","","","NA"
"-89.32","48.37","THUNDER BAY A","6048262","2015-10-11 04:00","2015","10","11","04:00","4.1","","4.0","","99","","23","","5","","24.1","","97.48","","","","","","Clear"
"-89.32","48.37","THUNDER BAY A","6048262","2015-10-11 05:00","2015","10","11","05:00","3.8","","3.8","","100","","25","","5","","24.1","","97.45","","","","","","NA"
"-89.32","48.37","THUNDER BAY A","6048262","2015-10-11 06:00","2015","10","11","06:00","3.4","","3.4","","100","","24","","7","","24.1","","97.46","","","","","","NA"
"-89.32","48.37","THUNDER BAY A","6048262","2015-10-11 07:00","2015","10","11","07:00","4.3","","4.3","","100","","24","","7","","32.2","","97.46","","","","","","Mainly Clear"
"-89.32","48.37","THUNDER BAY A","6048262","2015-10-11 08:00","2015","10","11","08:00","4.5","","4.5","","100","","27","","7","","32.2","","97.43","","","","","","NA"
"-89.32","48.37","THUNDER BAY A","6048262","2015-10-11 09:00","2015","10","11","09:00","8.9","","8.0","","94","","27","","5","","32.2","","97.44","","","","","","NA"
"-89.32","48.37","THUNDER BAY A","6048262","2015-10-11 10:00","2015","10","11","10:00","13.5","","10.5","","82","","36","","3","","32.2","","97.37","","","","","","Mainly Clear"
"-89.32","48.37","THUNDER BAY A","6048262","2015-10-11 11:00","2015","10","11","11:00","18.2","","11.6","","65","","25","","3","","32.2","","97.31","","","","","","NA"
"-89.32","48.37","THUNDER BAY A","6048262","2015-10-11 12:00","2015","10","11","12:00","21.6","","12.3","","55","","13","","7","","32.2","","97.25","","","","","","NA"
"-89.32","48.37","THUNDER BAY A","6048262","2015-10-11 13:00","2015","10","11","13:00","22.3","","13.2","","56","","9","","12","","32.2","","97.20","","25","","","","Mainly Clear"
"-89.32","48.37","THUNDER BAY A","6048262","2015-10-11 14:00","2015","10","11","14:00","23.4","","13.7","","54","","7","","13","","32.2","","97.11","","27","","","","NA"
"-89.32","48.37","THUNDER BAY A","6048262","2015-10-11 15:00","2015","10","11","15:00","21.9","","14.2","","61","","5","","14","","32.2","","97.03","","25","","","","NA"
"-89.32","48.37","THUNDER BAY A","6048262","2015-10-11 16:00","2015","10","11","16:00","20.7","","13.8","","64","","6","","15","","32.2","","96.98","","","","","","Mainly Clear"
"-89.32","48.37","THUNDER BAY A","6048262","2015-10-11 17:00","2015","10","11","17:00","18.1","","13.0","","72","","6","","12","","32.2","","96.96","","","","","","NA"
"-89.32","48.37","THUNDER BAY A","6048262","2015-10-11 18:00","2015","10","11","18:00","15.5","","11.9","","79","","7","","9","","32.2","","96.95","","","","","","NA"
"-89.32","48.37","THUNDER BAY A","6048262","2015-10-11 19:00","2015","10","11","19:00","12.9","","11.7","","92","","5","","4","","24.1","","96.95","","","","","","Mainly Clear"
"-89.32","48.37","THUNDER BAY A","6048262","2015-10-11 20:00","2015","10","11","20:00","12.0","","11.2","","95","","36","","3","","24.1","","96.94","","","","","","NA"
"-89.32","48.37","THUNDER BAY A","6048262","2015-10-11 21:00","2015","10","11","21:00","10.7","","10.3","","97","","6","","12","","24.1","","96.93","","","","","","NA"
"-89.32","48.37","THUNDER BAY A","6048262","2015-10-11 22:00","2015","10","11","22:00","13.1","","12.2","","94","","6","","14","","24.1","","96.89","","","","","","Clear"
"-89.32","48.37","THUNDER BAY A","6048262","2015-10-11 23:00","2015","10","11","23:00","12.7","","11.9","","95","","6","","17","","24.1","","96.83","","","","","","NA"
"-89.32","48.37","THUNDER BAY A","6048262","2015-10-12 00:00","2015","10","12","00:00","11.7","","11.2","","97","","6","","13","","24.1","","96.74","","","","","","NA"
"-89.32","48.37","THUNDER BAY A","6048262","2015-10-12 01:00","2015","10","12","01:00","12.7","","12.1","","96","","8","","17","","24.1","","96.62","","","","","","Mostly Cloudy"
"-89.32","48.37","THUNDER BAY A","6048262","2015-10-12 02:00","2015","10","12","02:00","12.2","","11.9","","98","","7","","16","","24.1","","96.51","","","","","","NA"
"-89.32","48.37","THUNDER BAY A","6048262","2015-10-12 03:00","2015","10","12","03:00","12.0","","11.5","","97","","9","","13","","24.1","","96.37","","","","","","NA"
"-89.32","48.37","THUNDER BAY A","6048262","2015-10-12 04:00","2015","10","12","04:00","11.4","","11.0","","97","","34","","5","","24.1","","96.32","","","","","","Mostly Cloudy"
"-89.32","48.37","THUNDER BAY A","6048262","2015-10-12 05:00","2015","10","12","05:00","11.7","","11.4","","98","","26","","9","","24.1","","96.35","","","","","","NA"
"-89.32","48.37","THUNDER BAY A","6048262","2015-10-12 06:00","2015","10","12","06:00","13.1","","10.8","","86","","25","","14","","24.1","","96.39","","","","","","NA"
"-89.32","48.37","THUNDER BAY A","6048262","2015-10-12 07:00","2015","10","12","07:00","13.2","","9.3","","77","","25","","22","","32.2","","96.44","","","","","","Mostly Cloudy"
"-89.32","48.37","THUNDER BAY A","6048262","2015-10-12 08:00","2015","10","12","08:00","11.1","","8.5","","84","","24","","13","","32.2","","96.45","","","","","","NA"
"-89.32","48.37","THUNDER BAY A","6048262","2015-10-12 09:00","2015","10","12","09:00","15.4","","9.2","","66","","22","","9","","32.2","","96.43","","","","","","NA"
"-89.32","48.37","THUNDER BAY A","6048262","2015-10-12 10:00","2015","10","12","10:00","17.2","","8.2","","55","","23","","19","","32.2","","96.40","","","","","","Mainly Clear"
"-89.32","48.37","THUNDER BAY A","6048262","2015-10-12 11:00","2015","10","12","11:00","18.6","","6.9","","46","","23","","14","","32.2","","96.37","","","","","","NA"
"-89.32","48.37","THUNDER BAY A","6048262","2015-10-12 12:00","2015","10","12","12:00","17.6","","6.6","","48","","23","","18","","32.2","","96.39","","","","","","NA"
"-89.32","48.37","THUNDER BAY A","6048262","2015-10-12 13:00","2015","10","12","13:00","17.7","","6.4","","47","","26","","17","","32.2","","96.39","","","","","","Mostly Cloudy"
"-89.32","48.37","THUNDER BAY A","6048262","2015-10-12 14:00","2015","10","12","14:00","16.4","","7.2","","54","","23","","19","","32.2","","96.40","","","","","","NA"
"-89.32","48.37","THUNDER BAY A","6048262","2015-10-12 15:00","2015","10","12","15:00","15.5","","7.8","","60","","28","","21","","32.2","","96.46","","","","","","Rain Showers"
"-89.32","48.37","THUNDER BAY A","6048262","2015-10-12 16:00","2015","10","12","16:00","16.0","","8.1","","59","","29","","13","","32.2","","96.49","","","","","","Mostly Cloudy"
"-89.32","48.37","THUNDER BAY A","6048262","2015-10-12 17:00","2015","10","12","17:00","13.2","","9.1","","76","","32","","15","","32.2","","96.61","","","","","","Rain Showers"
"-89.32","48.37","THUNDER BAY A","6048262","2015-10-12 18:00","2015","10","12","18:00","12.5","","9.7","","83","","28","","14","","32.2","","96.67","","","","","","NA"
"-89.32","48.37","THUNDER BAY A","6048262","2015-10-12 19:00","2015","10","12","19:00","12.6","","9.6","","82","","27","","9","","24.1","","96.74","","","","","","Mostly Cloudy"
"-89.32","48.37","THUNDER BAY A","6048262","2015-10-12 20:00","2015","10","12","20:00","12.5","","9.9","","84","","25","","11","","24.1","","96.80","","","","","","Rain Showers"
"-89.32","48.37","THUNDER BAY A","6048262","2015-10-12 21:00","2015","10","12","21:00","12.8","","9.7","","81","","27","","14","","24.1","","96.86","","","","","","NA"
"-89.32","48.37","THUNDER BAY A","6048262","2015-10-12 22:00","2015","10","12","22:00","13.2","","9.5","","78","","30","","30","","24.1","","96.96","","","","","","Cloudy"
"-89.32","48.37","THUNDER BAY A","6048262","2015-10-12 23:00","2015","10","12","23:00","10.5","","5.9","","73","","32","","28","","24.1","","97.13","","","","","","NA"
"-89.32","48.37","THUNDER BAY A","6048262","2015-10-13 00:00","2015","10","13","00:00","9.8","","5.4","","74","","31","","15","","24.1","","97.24","","","","","","NA"
"-89.32","48.37","THUNDER BAY A","6048262","2015-10-13 01:00","2015","10","13","01:00","8.9","","5.8","","81","","30","","18","","24.1","","97.33","","","","","","Cloudy"
"-89.32","48.37","THUNDER BAY A","6048262","2015-10-13 02:00","2015","10","13","02:00","8.1","","5.2","","82","","28","","21","","24.1","","97.42","","","","","","NA"
"-89.32","48.37","THUNDER BAY A","6048262","2015-10-13 03:00","2015","10","13","03:00","7.9","","4.5","","79","","30","","13","","24.1","","97.52","","","","","","NA"
"-89.32","48.37","THUNDER BAY A","6048262","2015-10-13 04:00","2015","10","13","04:00","7.4","","4.0","","79","","29","","17","","24.1","","97.60","","","","","","Cloudy"
"-89.32","48.37","THUNDER BAY A","6048262","2015-10-13 05:00","2015","10","13","05:00","7.0","","3.6","","79","","32","","18","","24.1","","97.64","","","","","","NA"
"-89.32","48.37","THUNDER BAY A","6048262","2015-10-13 06:00","2015","10","13","06:00","6.6","","3.4","","80","","32","","18","","24.1","","97.76","","","","","","NA"
"-89.32","48.37","THUNDER BAY A","6048262","2015-10-13 07:00","2015","10","13","07:00","5.8","","3.0","","82","","31","","15","","32.2","","97.81","","","","","","Mostly Cloudy"
"-89.32","48.37","THUNDER BAY A","6048262","2015-10-13 08:00","2015","10","13","08:00","6.6","","3.2","","79","","30","","13","","32.2","","97.89","","","","","","NA"
"-89.32","48.37","THUNDER BAY A","6048262","2015-10-13 09:00","2015","10","13","09:00","7.0","","2.9","","75","","29","","24","","32.2","","98.00","","","","","","NA"
"-89.32","48.37","THUNDER BAY A","6048262","2015-10-13 10:00","2015","10","13","10:00","7.8","","3.3","","73","","30","","29","","32.2","","98.07","","","","","","Cloudy"
"-89.32","48.37","THUNDER BAY A","6048262","2015-10-13 11:00","2015","10","13","11:00","7.3","","3.9","","79","","31","","23","","32.2","","98.11","","","","","","NA"
"-89.32","48.37","THUNDER BAY A","6048262","2015-10-13 12:00","2015","10","13","12:00","7.9","","2.6","","69","","33","","26","","32.2","","98.13","","","","","","NA"
"-89.32","48.37","THUNDER BAY A","6048262","2015-10-13 13:00","2015","10","13","13:00","9.0","","2.8","","65","","31","","22","","32.2","","98.14","","","","","","Mostly Cloudy"
"-89.32","48.37","THUNDER BAY A","6048262","2015-10-13 14:00","2015","10","13","14:00","9.6","","1.8","","58","","30","","21","","32.2","","98.16","","","","","","NA"
"-89.32","48.37","THUNDER BAY A","6048262","2015-10-13 15:00","2015","10","13","15:00","9.6","","1.5","","57","","33","","23","","32.2","","98.20","","","","","","NA"
"-89.32","48.37","THUNDER BAY A","6048262","2015-10-13 16:00","2015","10","13","16:00","10.7","","1.0","","51","","31","","18","","32.2","","98.27","","","","","","Mostly Cloudy"
"-89.32","48.37","THUNDER BAY A","6048262","2015-10-13 17:00","2015","10","13","17:00","9.0","","1.0","","57","","31","","13","","32.2","","98.35","","","","","","NA"
"-89.32","48.37","THUNDER BAY A","6048262","2015-10-13 18:00","2015","10","13","18:00","7.8","","0.8","","61","","31","","14","","32.2","","98.41","","","","","","NA"
"-89.32","48.37","THUNDER BAY A","6048262","2015-10-13 19:00","2015","10","13","19:00","6.6","","0.9","","67","","29","","10","","24.1","","98.48","","","","","","Mostly Cloudy"
"-89.32","48.37","THUNDER BAY A","6048262","2015-10-13 20:00","2015","10","13","20:00","5.5","","0.7","","71","","26","","9","","24.1","","98.55","","","","","","NA"
"-89.32","48.37","THUNDER BAY A","6048262","2015-10-13 21:00","2015","10","13","21:00","4.1","","0.6","","78","","27","","9","","24.1","","98.58","","","","","","NA"
"-89.32","48.37","THUNDER BAY A","6048262","2015-10-13 22:00","2015","10","13","22:00","3.1","","0.2","","81","","25","","7","","24.1","","98.61","","","","","","Clear"
"-89.32","48.37","THUNDER BAY A","6048262","2015-10-13 23:00","2015","10","13","23:00","1.2","","0.3","","94","","21","","8","","24.1","","98.61","","","","","","NA"
"-89.32","48.37","THUNDER BAY A","6048262","2015-10-14 00:00","2015","10","14","00:00","0.2","","-0.2","","97","","30","","4","","24.1","","98.63","","","","","","NA"
"-89.32","48.37","THUNDER BAY A","6048262","2015-10-14 01:00","2015","10","14","01:00","-0.9","","-1.0","","99","","28","","7","","24.1","","98.63","","","","-3","","Clear"
"-89.32","48.37","THUNDER BAY A","6048262","2015-10-14 02:00","2015","10","14","02:00","-1.6","","-1.7","","99","","29","","8","","24.1","","98.59","","","","-5","","NA"
"-89.32","48.37","THUNDER BAY A","6048262","2015-10-14 03:00","2015","10","14","03:00","-0.7","","-0.8","","99","","30","","7","","24.1","","98.55","","","","-3","","NA"
"-89.32","48.37","THUNDER BAY A","6048262","2015-10-14 04:00","2015","10","14","04:00","-1.7","","-1.7","","100","","31","","8","","24.1","","98.50","","","","-5","","Mainly Clear"
"-89.32","48.37","THUNDER BAY A","6048262","2015-10-14 05:00","2015","10","14","05:00","-1.6","","-1.6","","100","","29","","7","","24.1","","98.48","","","","-4","","NA"
"-89.32","48.37","THUNDER BAY A","6048262","2015-10-14 06:00","2015","10","14","06:00","-1.0","","-1.1","","99","","30","","7","","24.1","","98.48","","","","-4","","NA"
"-89.32","48.37","THUNDER BAY A","6048262","2015-10-14 07:00","2015","10","14","07:00","-0.9","","-0.9","","100","","28","","8","","32.2","","98.46","","","","-4","","Mainly Clear"
"-89.32","48.37","THUNDER BAY A","6048262","2015-10-14 08:00","2015","10","14","08:00","-1.1","","-1.1","","100","","30","","4","","32.2","","98.43","","","","-2","","NA"
"-89.32","48.37","THUNDER BAY A","6048262","2015-10-14 09:00","2015","10","14","09:00","4.7","","3.2","","90","","27","","7","","32.2","","98.41","","","","","","NA"
"-89.32","48.37","THUNDER BAY A","6048262","2015-10-14 10:00","2015","10","14","10:00","8.4","","4.8","","78","","22","","5","","32.2","","98.38","","","","","","Mainly Clear"
"-89.32","48.37","THUNDER BAY A","6048262","2015-10-14 11:00","2015","10","14","11:00","12.8","","5.5","","61","","27","","15","","32.2","","98.32","","","","","","NA"
"-89.32","48.37","THUNDER BAY A","6048262","2015-10-14 12:00","2015","10","14","12:00","15.7","","5.1","","49","","28","","16","","32.2","","98.25","","","","","","NA"
"-89.32","48.37","THUNDER BAY A","6048262","2015-10-14 13:00","2015","10","14","13:00","17.3","","4.4","","42","","28","","22","","32.2","","98.22","","","","","","Mainly Clear"
"-89.32","48.37","THUNDER BAY A","6048262","2015-10-14 14:00","2015","10","14","14:00","17.0","","2.7","","38","","30","","28","","32.2","","98.20","","","","","","NA"
"-89.32","48.37","THUNDER BAY A","6048262","2015-10-14 15:00","2015","10","14","15:00","17.4","","1.9","","35","","28","","25","","32.2","","98.21","","","","","","NA"
"-89.32","48.37","THUNDER BAY A","6048262","2015-10-14 16:00","2015","10","14","16:00","16.9","","1.8","","36","","29","","30","","32.2","","98.24","","","","","","Mainly Clear"
"-89.32","48.37","THUNDER BAY A","6048262","2015-10-14 17:00","2015","10","14","17:00","15.6","","1.1","","37","","29","","25","","32.2","","98.29","","","","","","NA"
"-89.32","48.37","THUNDER BAY A","6048262","2015-10-14 18:00","2015","10","14","18:00","13.7","","1.4","","43","","28","","15","","32.2","","98.33","","","","","","NA"
"-89.32","48.37","THUNDER BAY A","6048262","2015-10-14 19:00","2015","10","14","19:00","11.1","","1.1","","50","","25","","13","","24.1","","98.39","","","","","","Mainly Clear"
"-89.32","48.37","THUNDER BAY A","6048262","2015-10-14 20:00","2015","10","14","20:00","9.1","","2.2","","62","","27","","10","","24.1","","98.41","","","","","","NA"
"-89.32","48.37","THUNDER BAY A","6048262","2015-10-14 21:00","2015","10","14","21:00","6.0","","1.9","","75","","27","","8","","24.1","","98.40","","","","","","NA"
"-89.32","48.37","THUNDER BAY A","6048262","2015-10-14 22:00","2015","10","14","22:00","4.2","","0.7","","78","","27","","9","","24.1","","98.39","","","","","","Clear"
"-89.32","48.37","THUNDER BAY A","6048262","2015-10-14 23:00","2015","10","14","23:00","3.9","","0.9","","81","","28","","5","","24.1","","98.38","","","","","","NA"
"-89.32","48.37","THUNDER BAY A","6048262","2015-10-15 00:00","2015","10","15","00:00","3.2","","0.1","","80","","22","","4","","24.1","","98.38","","","","","","NA"
"-89.32","48.37","THUNDER BAY A","6048262","2015-10-15 01:00","2015","10","15","01:00","3.4","","1.1","","85","","28","","6","","24.1","","98.39","","","","","","Mainly Clear"
"-89.32","48.37","THUNDER BAY A","6048262","2015-10-15 02:00","2015","10","15","02:00","2.8","","1.0","","88","","30","","6","","24.1","","98.40","","","","","","NA"
"-89.32","48.37","THUNDER BAY A","6048262","2015-10-15 03:00","2015","10","15","03:00","3.1","","2.4","","95","","24","","5","","24.1","","98.38","","","","","","NA"
"-89.32","48.37","THUNDER BAY A","6048262","2015-10-15 04:00","2015","10","15","04:00","2.5","","2.2","","98","","30","","9","","24.1","","98.37","","","","","","Mainly Clear"
"-89.32","48.37","THUNDER BAY A","6048262","2015-10-15 05:00","2015","10","15","05:00","1.5","","0.8","","95","","21","","9","","24.1","","98.34","","","","","","NA"
"-89.32","48.37","THUNDER BAY A","6048262","2015-10-15 06:00","2015","10","15","06:00","0.4","","0.0","","97","","29","","8","","32.2","","98.37","","","","","","NA"
"-89.32","48.37","THUNDER BAY A","6048262","2015-10-15 07:00","2015","10","15","07:00","0.9","","0.9","","100","","29","","5","","32.2","","98.38","","","","","","Mostly Cloudy"
"-89.32","48.37","THUNDER BAY A","6048262","2015-10-15 08:00","2015","10","15","08:00","1.9","","0.9","","93","","26","","9","","32.2","","98.46","","","","","","NA"
"-89.32","48.37","THUNDER BAY A","6048262","2015-10-15 09:00","2015","10","15","09:00","5.4","","3.4","","87","","24","","7","","32.2","","98.48","","","","","","NA"
"-89.32","48.37","THUNDER BAY A","6048262","2015-10-15 10:00","2015","10","15","10:00","8.6","","4.3","","74","","30","","14","","32.2","","98.53","","","","","","Mainly Clear"
"-89.32","48.37","THUNDER BAY A","6048262","2015-10-15 11:00","2015","10","15","11:00","10.5","","4.2","","65","","30","","17","","32.2","","98.59","","","","","","NA"
"-89.32","48.37","THUNDER BAY A","6048262","2015-10-15 12:00","2015","10","15","12:00","11.8","","2.6","","53","","30","","24","","32.2","","98.62","","","","","","NA"
"-89.32","48.37","THUNDER BAY A","6048262","2015-10-15 13:00","2015","10","15","13:00","11.3","","2.4","","54","","30","","26","","32.2","","98.73","","","","","","Mostly Cloudy"
"-89.32","48.37","THUNDER BAY A","6048262","2015-10-15 14:00","2015","10","15","14:00","11.3","","1.3","","50","","32","","23","","32.2","","98.79","","","","","","NA"
"-89.32","48.37","THUNDER BAY A","6048262","2015-10-15 15:00","2015","10","15","15:00","12.3","","0.1","","43","","32","","23","","32.2","","98.79","","","","","","NA"
"-89.32","48.37","THUNDER BAY A","6048262","2015-10-15 16:00","2015","10","15","16:00","11.4","","2.7","","55","","30","","11","","32.2","","98.86","","","","","","Rain Showers"
"-89.32","48.37","THUNDER BAY A","6048262","2015-10-15 17:00","2015","10","15","17:00","9.6","","3.6","","66","","26","","15","","32.2","","98.93","","","","","","Rain Showers"
"-89.32","48.37","THUNDER BAY A","6048262","2015-10-15 18:00","2015","10","15","18:00","5.3","","3.8","","90","","29","","11","","32.2","","99.12","","","","","","NA"
"-89.32","48.37","THUNDER BAY A","6048262","2015-10-15 19:00","2015","10","15","19:00","4.5","","3.5","","93","","26","","10","","24.1","","99.22","","","","","","Mostly Cloudy"
"-89.32","48.37","THUNDER BAY A","6048262","2015-10-15 20:00","2015","10","15","20:00","3.6","","1.6","","87","","29","","13","","24.1","","99.33","","","","","","NA"
"-89.32","48.37","THUNDER BAY A","6048262","2015-10-15 21:00","2015","10","15","21:00","3.2","","-1.4","","72","","32","","18","","24.1","","99.44","","","","","","NA"
"-89.32","48.37","THUNDER BAY A","6048262","2015-10-15 22:00","2015","10","15","22:00","2.2","","-0.2","","84","","34","","14","","24.1","","99.55","","","","","","Mostly Cloudy"
"-89.32","48.37","THUNDER BAY A","6048262","2015-10-15 23:00","2015","10","15","23:00","2.7","","-3.2","","65","","32","","17","","24.1","","99.59","","","","","","NA"
"-89.32","48.37","THUNDER BAY A","6048262","2015-10-16 00:00","2015","10","16","00:00","1.7","","-5.7","","58","","33","","19","","24.1","","99.68","","","","","","NA"
"-89.32","48.37","THUNDER BAY A","6048262","2015-10-16 01:00","2015","10","16","01:00","0.8","","-6.3","","59","","31","","16","","24.1","","99.70","","","","","","Mainly Clear"
"-89.32","48.37","THUNDER BAY A","6048262","2015-10-16 02:00","2015","10","16","02:00","0.3","","-6.8","","59","","30","","24","","24.1","","99.76","","","","","","NA"
"-89.32","48.37","THUNDER BAY A","6048262","2015-10-16 03:00","2015","10","16","03:00","-0.4","","-6.8","","62","","31","","14","","24.1","","99.83","","","","-5","","NA"
"-89.32","48.37","THUNDER BAY A","6048262","2015-10-16 04:00","2015","10","16","04:00","-0.1","","-6.7","","61","","30","","16","","24.1","","99.87","","","","-5","","Mostly Cloudy"
"-89.32","48.37","THUNDER BAY A","6048262","2015-10-16 05:00","2015","10","16","05:00","-0.4","","-7.0","","61","","30","","18","","24.1","","99.90","","","","-5","","NA"
"-89.32","48.37","THUNDER BAY A","6048262","2015-10-16 06:00","2015","10","16","06:00","-1.1","","-6.9","","65","","30","","13","","24.1","","99.96","","","","-5","","NA"
"-89.32","48.37","THUNDER BAY A","6048262","2015-10-16 07:00","2015","10","16","07:00","-1.2","","-7.4","","63","","31","","17","","32.2","","100.04","","","","-6","","Mainly Clear"
"-89.32","48.37","THUNDER BAY A","6048262","2015-10-16 08:00","2015","10","16","08:00","-1.5","","-7.1","","66","","30","","17","","32.2","","100.10","","","","-7","","NA"
"-89.32","48.37","THUNDER BAY A","6048262","2015-10-16 09:00","2015","10","16","09:00","-0.5","","-6.5","","64","","30","","16","","32.2","","100.15","","","","-5","","NA"
"-89.32","48.37","THUNDER BAY A","6048262","2015-10-16 10:00","2015","10","16","10:00","0.3","","-6.8","","59","","29","","27","","32.2","","100.17","","","","","","Mainly Clear"
"-89.32","48.37","THUNDER BAY A","6048262","2015-10-16 11:00","2015","10","16","11:00","1.6","","-6.3","","56","","35","","15","","32.2","","100.18","","","","","","NA"
"-89.32","48.37","THUNDER BAY A","6048262","2015-10-16 12:00","2015","10","16","12:00","2.9","","-6.0","","52","","33","","18","","32.2","","100.17","","","","","","NA"
"-89.32","48.37","THUNDER BAY A","6048262","2015-10-16 13:00","2015","10","16","13:00","4.1","","-6.0","","48","","34","","11","","32.2","","100.13","","","","","","Mainly Clear"
"-89.32","48.37","THUNDER BAY A","6048262","2015-10-16 14:00","2015","10","16","14:00","5.5","","-6.1","","43","","32","","21","","32.2","","100.11","","","","","","NA"
"-89.32","48.37","THUNDER BAY A","6048262","2015-10-16 15:00","2015","10","16","15:00","4.3","","-6.9","","44","","31","","11","","32.2","","100.11","","","","","","NA"
"-89.32","48.37","THUNDER BAY A","6048262","2015-10-16 16:00","2015","10","16","16:00","4.0","","-7.8","","42","","30","","13","","32.2","","100.13","","","","","","Mainly Clear"
"-89.32","48.37","THUNDER BAY A","6048262","2015-10-16 17:00","2015","10","16","17:00","4.2","","-11.1","","32","","30","","23","","32.2","","100.17","","","","","","NA"
"-89.32","48.37","THUNDER BAY A","6048262","2015-10-16 18:00","2015","10","16","18:00","2.7","","-10.3","","38","","31","","18","","32.2","","100.20","","","","","","NA"
"-89.32","48.37","THUNDER BAY A","6048262","2015-10-16 19:00","2015","10","16","19:00","0.1","","-9.4","","49","","29","","10","","24.1","","100.23","","","","","","Mainly Clear"
"-89.32","48.37","THUNDER BAY A","6048262","2015-10-16 20:00","2015","10","16","20:00","-1.3","","-9.5","","54","","29","","8","","24.1","","100.24","","","","-4","","NA"
"-89.32","48.37","THUNDER BAY A","6048262","2015-10-16 21:00","2015","10","16","21:00","-1.4","","-8.4","","59","","30","","4","","24.1","","100.27","","","","-3","","NA"
"-89.32","48.37","THUNDER BAY A","6048262","2015-10-16 22:00","2015","10","16","22:00","-1.9","","-7.2","","67","","36","","3","","24.1","","100.29","","","","-3","","Cloudy"
"-89.32","48.37","THUNDER BAY A","6048262","2015-10-16 23:00","2015","10","16","23:00","-1.7","","-5.4","","76","","1","","3","","24.1","","100.31","","","","-3","","NA"
"-89.32","48.37","THUNDER BAY A","6048262","2015-10-17 00:00","2015","10","17","00:00","-1.3","","-5.7","","72","","31","","4","","24.1","","100.33","","","","-3","","NA"
"-89.32","48.37","THUNDER BAY A","6048262","2015-10-17 01:00","2015","10","17","01:00","-1.8","","-5.8","","74","","30","","4","","24.1","","100.34","","","","-3","","Mostly Cloudy"
"-89.32","48.37","THUNDER BAY A","6048262","2015-10-17 02:00","2015","10","17","02:00","-3.6","","-6.4","","81","","32","","3","","24.1","","100.38","","","","-5","","NA"
"-89.32","48.37","THUNDER BAY A","6048262","2015-10-17 03:00","2015","10","17","03:00","-4.5","","-6.0","","89","","29","","4","","24.1","","100.40","","","","-6","","NA"
"-89.32","48.37","THUNDER BAY A","6048262","2015-10-17 04:00","2015","10","17","04:00","-6.0","","-7.0","","93","","26","","5","","24.1","","100.41","","","","-8","","Clear"
"-89.32","48.37","THUNDER BAY A","6048262","2015-10-17 05:00","2015","10","17","05:00","-6.1","","-7.2","","92","","30","","6","","24.1","","100.46","","","","-9","","NA"
"-89.32","48.37","THUNDER BAY A","6048262","2015-10-17 06:00","2015","10","17","06:00","-6.0","","-7.1","","92","","26","","3","","24.1","","100.49","","","","-7","","NA"
"-89.32","48.37","THUNDER BAY A","6048262","2015-10-17 07:00","2015","10","17","07:00","-6.4","","-7.2","","94","","28","","4","","32.2","","100.51","","","","-8","","Mainly Clear"
"-89.32","48.37","THUNDER BAY A","6048262","2015-10-17 08:00","2015","10","17","08:00","-6.3","","-7.3","","93","","25","","8","","32.2","","100.55","","","","-10","","NA"
"-89.32","48.37","THUNDER BAY A","6048262","2015-10-17 09:00","2015","10","17","09:00","-2.4","","-6.2","","75","","25","","8","","32.2","","100.59","","","","-6","","NA"
"-89.32","48.37","THUNDER BAY A","6048262","2015-10-17 10:00","2015","10","17","10:00","-0.2","","-6.8","","61","","26","","14","","32.2","","100.60","","","","-4","","Mainly Clear"
"-89.32","48.37","THUNDER BAY A","6048262","2015-10-17 11:00","2015","10","17","11:00","2.1","","-8.6","","45","","30","","16","","32.2","","100.60","","","","","","NA"
"-89.32","48.37","THUNDER BAY A","6048262","2015-10-17 12:00","2015","10","17","12:00","2.8","","-9.2","","41","","32","","18","","24.1","","100.56","","","","","","NA"
"-89.32","48.37","THUNDER BAY A","6048262","2015-10-17 13:00","2015","10","17","13:00","3.4","","-8.3","","42","","31","","19","","32.2","","100.48","","","","","","Mostly Cloudy"
"-89.32","48.37","THUNDER BAY A","6048262","2015-10-17 14:00","2015","10","17","14:00","3.6","","-7.6","","44","","27","","17","","32.2","","100.44","","","","","","NA"
"-89.32","48.37","THUNDER BAY A","6048262","2015-10-17 15:00","2015","10","17","15:00","3.6","","-7.0","","46","","31","","20","","32.2","","100.41","","","","","","NA"
"-89.32","48.37","THUNDER BAY A","6048262","2015-10-17 16:00","2015","10","17","16:00","3.6","","-6.1","","49","","31","","17","","32.2","","100.41","","","","","","Cloudy"
"-89.32","48.37","THUNDER BAY A","6048262","2015-10-17 17:00","2015","10","17","17:00","3.4","","-5.8","","51","","30","","9","","32.2","","100.38","","","","","","NA"
"-89.32","48.37","THUNDER BAY A","6048262","2015-10-17 18:00","2015","10","17","18:00","2.9","","-5.5","","54","","31","","9","","32.2","","100.38","","","","","","NA"
"-89.32","48.37","THUNDER BAY A","6048262","2015-10-17 19:00","2015","10","17","19:00","2.3","","-5.1","","58","","32","","7","","24.1","","100.39","","","","","","Mostly Cloudy"
"-89.32","48.37","THUNDER BAY A","6048262","2015-10-17 20:00","2015","10","17","20:00","1.2","","-5.3","","62","","30","","8","","24.1","","100.43","","","","","","NA"
"-89.32","48.37","THUNDER BAY A","6048262","2015-10-17 21:00","2015","10","17","21:00","-0.5","","-5.3","","70","","31","","9","","24.1","","100.44","","","","-4","","NA"
"-89.32","48.37","THUNDER BAY A","6048262","2015-10-17 22:00","2015","10","17","22:00","-0.4","","-6.2","","65","","36","","2","","24.1","","100.45","","","","-1","","Mainly Clear"
"-89.32","48.37","THUNDER BAY A","6048262","2015-10-17 23:00","2015","10","17","23:00","-3.9","","-6.1","","85","","36","","2","","24.1","","100.47","","","","-5","","NA"
"-89.32","48.37","THUNDER BAY A","6048262","2015-10-18 00:00","2015","10","18","00:00","-3.4","","-6.0","","82","","30","","6","","24.1","","100.48","","","","-6","","NA"
"-89.32","48.37","THUNDER BAY A","6048262","2015-10-18 01:00","2015","10","18","01:00","-4.4","","-6.0","","89","","30","","5","","24.1","","100.50","","","","-7","","Clear"
"-89.32","48.37","THUNDER BAY A","6048262","2015-10-18 02:00","2015","10","18","02:00","-5.7","","-6.9","","91","","29","","4","","24.1","","100.54","","","","-8","","NA"
"-89.32","48.37","THUNDER BAY A","6048262","2015-10-18 03:00","2015","10","18","03:00","-6.0","","-6.5","","96","","29","","5","","24.1","","100.55","","","","-8","","NA"
"-89.32","48.37","THUNDER BAY A","6048262","2015-10-18 04:00","2015","10","18","04:00","-7.4","","-8.5","","92","","26","","7","","24.1","","100.59","","","","-11","","Clear"
"-89.32","48.37","THUNDER BAY A","6048262","2015-10-18 05:00","2015","10","18","05:00","-6.3","","-6.8","","96","","30","","7","","24.1","","100.61","","","","-10","","NA"
"-89.32","48.37","THUNDER BAY A","6048262","2015-10-18 06:00","2015","10","18","06:00","-6.1","","-6.6","","96","","27","","4","","24.1","","100.64","","","","-8","","NA"
"-89.32","48.37","THUNDER BAY A","6048262","2015-10-18 07:00","2015","10","18","07:00","-4.7","","-5.4","","95","","23","","6","","32.2","","100.66","","","","-7","","Mostly Cloudy"
"-89.32","48.37","THUNDER BAY A","6048262","2015-10-18 08:00","2015","10","18","08:00","-3.8","","-4.5","","95","","24","","3","","32.2","","100.63","","","","-5","","NA"
"-89.32","48.37","THUNDER BAY A","6048262","2015-10-18 09:00","2015","10","18","09:00","-2.1","","-4.3","","85","","0","","1","","32.2","","100.63","","","","-2","","NA"
"-89.32","48.37","THUNDER BAY A","6048262","2015-10-18 10:00","2015","10","18","10:00","0.5","","-4.5","","69","","30","","3","","32.2","","100.62","","","","","","Mostly Cloudy"
"-89.32","48.37","THUNDER BAY A","6048262","2015-10-18 11:00","2015","10","18","11:00","3.6","","-3.5","","60","","10","","4","","32.2","","100.53","","","","","","NA"
"-89.32","48.37","THUNDER BAY A","6048262","2015-10-18 12:00","2015","10","18","12:00","5.9","","-3.0","","53","","21","","13","","32.2","","100.43","","","","","","NA"
"-89.32","48.37","THUNDER BAY A","6048262","2015-10-18 13:00","2015","10","18","13:00","7.4","","-3.5","","46","","18","","19","","32.2","","100.30","","","","","","Mainly Clear"
"-89.32","48.37","THUNDER BAY A","6048262","2015-10-18 14:00","2015","10","18","14:00","7.8","","-2.8","","47","","17","","20","","32.2","","100.17","","","","","","NA"
"-89.32","48.37","THUNDER BAY A","6048262","2015-10-18 15:00","2015","10","18","15:00","8.4","","-1.4","","50","","18","","21","","32.2","","100.00","","","","","","NA"
"-89.32","48.37","THUNDER BAY A","6048262","2015-10-18 16:00","2015","10","18","16:00","7.7","","0.9","","62","","19","","21","","32.2","","99.87","","","","","","Mostly Cloudy"
"-89.32","48.37","THUNDER BAY A","6048262","2015-10-18 17:00","2015","10","18","17:00","6.6","","0.7","","66","","16","","17","","32.2","","99.74","","","","","","NA"
"-89.32","48.37","THUNDER BAY A","6048262","2015-10-18 18:00","2015","10","18","18:00","5.2","","0.0","","69","","15","","9","","32.2","","99.62","","","","","","NA"
"-89.32","48.37","THUNDER BAY A","6048262","2015-10-18 19:00","2015","10","18","19:00","2.8","","-0.7","","78","","12","","7","","24.1","","99.49","","","","","","Mainly Clear"
"-89.32","48.37","THUNDER BAY A","6048262","2015-10-18 20:00","2015","10","18","20:00","0.4","","-1.8","","85","","1","","5","","24.1","","99.37","","","","","","NA"
"-89.32","48.37","THUNDER BAY A","6048262","2015-10-18 21:00","2015","10","18","21:00","-1.1","","-2.4","","91","","36","","3","","24.1","","99.20","","","","-2","","NA"
"-89.32","48.37","THUNDER BAY A","6048262","2015-10-18 22:00","2015","10","18","22:00","-1.3","","-2.0","","95","","36","","2","","24.1","","99.02","","","","-2","","Clear"
"-89.32","48.37","THUNDER BAY A","6048262","2015-10-18 23:00","2015","10","18","23:00","-1.5","","-1.8","","98","","1","","7","","24.1","","98.92","","","","-4","","NA"
"-89.32","48.37","THUNDER BAY A","6048262","2015-10-19 00:00","2015","10","19","00:00","-1.8","","-2.4","","96","","34","","3","","24.1","","98.84","","","","-3","","NA"
"-89.32","48.37","THUNDER BAY A","6048262","2015-10-19 01:00","2015","10","19","01:00","-2.0","","-2.3","","98","","36","","3","","24.1","","98.73","","","","-3","","Clear"
"-89.32","48.37","THUNDER BAY A","6048262","2015-10-19 02:00","2015","10","19","02:00","5.9","","0.3","","67","","23","","12","","24.1","","98.60","","","","","","NA"
"-89.32","48.37","THUNDER BAY A","6048262","2015-10-19 03:00","2015","10","19","03:00","8.3","","0.8","","59","","24","","10","","24.1","","98.48","","","","","","NA"
"-89.32","48.37","THUNDER BAY A","6048262","2015-10-19 04:00","2015","10","19","04:00","9.5","","0.7","","54","","24","","11","","24.1","","98.36","","","","","","Mostly Cloudy"
"-89.32","48.37","THUNDER BAY A","6048262","2015-10-19 05:00","2015","10","19","05:00","1.7","","-0.2","","87","","32","","4","","24.1","","98.31","","","","","","NA"
"-89.32","48.37","THUNDER BAY A","6048262","2015-10-19 06:00","2015","10","19","06:00","1.2","","-0.1","","91","","34","","4","","24.1","","98.26","","","","","","NA"
"-89.32","48.37","THUNDER BAY A","6048262","2015-10-19 07:00","2015","10","19","07:00","1.4","","0.2","","92","","33","","4","","32.2","","98.23","","","","","","Cloudy"
"-89.32","48.37","THUNDER BAY A","6048262","2015-10-19 08:00","2015","10","19","08:00","2.2","","0.7","","90","","28","","7","","32.2","","98.21","","","","","","NA"
"-89.32","48.37","THUNDER BAY A","6048262","2015-10-19 09:00","2015","10","19","09:00","4.5","","1.7","","82","","27","","6","","32.2","","98.23","","","","","","NA"
"-89.32","48.37","THUNDER BAY A","6048262","2015-10-19 10:00","2015","10","19","10:00","8.7","","3.4","","69","","28","","7","","32.2","","98.21","","","","","","Mostly Cloudy"
"-89.32","48.37","THUNDER BAY A","6048262","2015-10-19 11:00","2015","10","19","11:00","13.5","","4.7","","55","","27","","15","","32.2","","98.19","","","","","","NA"
"-89.32","48.37","THUNDER BAY A","6048262","2015-10-19 12:00","2015","10","19","12:00","16.3","","4.1","","44","","27","","19","","32.2","","98.18","","","","","","NA"
"-89.32","48.37","THUNDER BAY A","6048262","2015-10-19 13:00","2015","10","19","13:00","17.7","","4.7","","42","","31","","18","","32.2","","98.17","","","","","","Mostly Cloudy"
"-89.32","48.37","THUNDER BAY A","6048262","2015-10-19 14:00","2015","10","19","14:00","19.1","","5.3","","40","","28","","16","","32.2","","98.14","","","","","","NA"
"-89.32","48.37","THUNDER BAY A","6048262","2015-10-19 15:00","2015","10","19","15:00","20.6","","4.8","","35","","27","","7","","32.2","","98.13","","","","","","NA"
"-89.32","48.37","THUNDER BAY A","6048262","2015-10-19 16:00","2015","10","19","16:00","20.6","","3.9","","33","","29","","10","","32.2","","98.15","","","","","","Mainly Clear"
"-89.32","48.37","THUNDER BAY A","6048262","2015-10-19 17:00","2015","10","19","17:00","19.5","","3.0","","33","","29","","17","","32.2","","98.21","","","","","","NA"
"-89.32","48.37","THUNDER BAY A","6048262","2015-10-19 18:00","2015","10","19","18:00","16.3","","4.1","","44","","27","","10","","32.2","","98.31","","","","","","NA"
"-89.32","48.37","THUNDER BAY A","6048262","2015-10-19 19:00","2015","10","19","19:00","11.9","","5.1","","63","","28","","9","","24.1","","98.41","","","","","","Mainly Clear"
"-89.32","48.37","THUNDER BAY A","6048262","2015-10-19 20:00","2015","10","19","20:00","7.5","","3.8","","77","","26","","7","","24.1","","98.53","","","","","","NA"
"-89.32","48.37","THUNDER BAY A","6048262","2015-10-19 21:00","2015","10","19","21:00","9.4","","2.7","","63","","32","","9","","24.1","","98.61","","","","","","NA"
"-89.32","48.37","THUNDER BAY A","6048262","2015-10-19 22:00","2015","10","19","22:00","7.3","","2.2","","70","","28","","6","","24.1","","98.71","","","","","","Clear"
"-89.32","48.37","THUNDER BAY A","6048262","2015-10-19 23:00","2015","10","19","23:00","6.3","","2.0","","74","","36","","1","","24.1","","98.86","","","","","","NA"
"-89.32","48.37","THUNDER BAY A","6048262","2015-10-20 00:00","2015","10","20","00:00","8.7","","3.4","","69","","3","","7","","24.1","","99.02","","","","","","NA"
"-89.32","48.37","THUNDER BAY A","6048262","2015-10-20 01:00","2015","10","20","01:00","4.6","","2.0","","83","","2","","5","","24.1","","99.10","","","","","","Clear"
"-89.32","48.37","THUNDER BAY A","6048262","2015-10-20 02:00","2015","10","20","02:00","6.5","","1.2","","69","","36","","8","","24.1","","99.20","","","","","","NA"
"-89.32","48.37","THUNDER BAY A","6048262","2015-10-20 03:00","2015","10","20","03:00","5.4","","0.6","","71","","1","","7","","24.1","","99.29","","","","","","NA"
"-89.32","48.37","THUNDER BAY A","6048262","2015-10-20 04:00","2015","10","20","04:00","3.8","","-0.4","","74","","36","","8","","24.1","","99.36","","","","","","Clear"
"-89.32","48.37","THUNDER BAY A","6048262","2015-10-20 05:00","2015","10","20","05:00","0.8","","-1.3","","86","","33","","5","","24.1","","99.48","","","","","","NA"
"-89.32","48.37","THUNDER BAY A","6048262","2015-10-20 06:00","2015","10","20","06:00","2.4","","-2.9","","68","","2","","13","","24.1","","99.59","","","","","","NA"
"-89.32","48.37","THUNDER BAY A","6048262","2015-10-20 07:00","2015","10","20","07:00","1.8","","-3.7","","67","","36","","8","","32.2","","99.68","","","","","","Mainly Clear"
"-89.32","48.37","THUNDER BAY A","6048262","2015-10-20 08:00","2015","10","20","08:00","1.6","","-3.3","","70","","36","","9","","32.2","","99.75","","","","","","NA"
"-89.32","48.37","THUNDER BAY A","6048262","2015-10-20 09:00","2015","10","20","09:00","2.6","","-3.7","","63","","3","","9","","32.2","","99.84","","","","","","NA"
"-89.32","48.37","THUNDER BAY A","6048262","2015-10-20 10:00","2015","10","20","10:00","3.5","","-4.0","","58","","5","","20","","32.2","","99.90","","","","","","Mostly Cloudy"
"-89.32","48.37","THUNDER BAY A","6048262","2015-10-20 11:00","2015","10","20","11:00","4.8","","-5.0","","49","","8","","15","","32.2","","99.94","","","","","","NA"
"-89.32","48.37","THUNDER BAY A","6048262","2015-10-20 12:00","2015","10","20","12:00","6.2","","-7.4","","37","","9","","23","","32.2","","99.96","","","","","","NA"
"-89.32","48.37","THUNDER BAY A","6048262","2015-10-20 13:00","2015","10","20","13:00","6.1","","-7.2","","38","","10","","20","","32.2","","99.97","","","","","","Mostly Cloudy"
"-89.32","48.37","THUNDER BAY A","6048262","2015-10-20 14:00","2015","10","20","14:00","6.9","","-6.1","","39","","8","","21","","32.2","","99.94","","","","","","NA"
"-89.32","48.37","THUNDER BAY A","6048262","2015-10-20 15:00","2015","10","20","15:00","6.7","","-5.0","","43","","10","","12","","32.2","","99.93","","","","","","NA"
"-89.32","48.37","THUNDER BAY A","6048262","2015-10-20 16:00","2015","10","20","16:00","6.5","","-3.7","","48","","9","","16","","32.2","","99.88","","","","","","Mostly Cloudy"
"-89.32","48.37","THUNDER BAY A","6048262","2015-10-20 17:00","2015","10","20","17:00","5.2","","-4.4","","50","","10","","14","","32.2","","99.86","","","","","","NA"
"-89.32","48.37","THUNDER BAY A","6048262","2015-10-20 18:00","2015","10","20","18:00","3.8","","-3.3","","60","","9","","12","","32.2","","99.89","","","","","","NA"
"-89.32","48.37","THUNDER BAY A","6048262","2015-10-20 19:00","2015","10","20","19:00","5.1","","-2.7","","57","","10","","13","","24.1","","99.88","","","","","","Mostly Cloudy"
"-89.32","48.37","THUNDER BAY A","6048262","2015-10-20 20:00","2015","10","20","20:00","4.3","","-2.6","","61","","9","","14","","24.1","","99.89","","","","","","NA"
"-89.32","48.37","THUNDER BAY A","6048262","2015-10-20 21:00","2015","10","20","21:00","5.5","","-2.6","","56","","9","","18","","24.1","","99.89","","","","","","NA"
"-89.32","48.37","THUNDER BAY A","6048262","2015-10-20 22:00","2015","10","20","22:00","5.1","","-2.0","","60","","8","","18","","24.1","","99.87","","","","","","Cloudy"
"-89.32","48.37","THUNDER BAY A","6048262","2015-10-20 23:00","2015","10","20","23:00","5.2","","-2.6","","57","","10","","20","","24.1","","99.80","","","","","","NA"
"-89.32","48.37","THUNDER BAY A","6048262","2015-10-21 00:00","2015","10","21","00:00","6.4","","-3.0","","51","","11","","22","","24.1","","99.74","","","","","","NA"
"-89.32","48.37","THUNDER BAY A","6048262","2015-10-21 01:00","2015","10","21","01:00","6.7","","-1.5","","56","","11","","19","","24.1","","99.72","","","","","","Mostly Cloudy"
"-89.32","48.37","THUNDER BAY A","6048262","2015-10-21 02:00","2015","10","21","02:00","7.1","","-0.6","","58","","11","","29","","24.1","","99.67","","","","","","NA"
"-89.32","48.37","THUNDER BAY A","6048262","2015-10-21 03:00","2015","10","21","03:00","7.2","","0.2","","61","","10","","31","","24.1","","99.55","","","","","","NA"
"-89.32","48.37","THUNDER BAY A","6048262","2015-10-21 04:00","2015","10","21","04:00","7.2","","1.3","","66","","11","","21","","24.1","","99.53","","","","","","Cloudy"
"-89.32","48.37","THUNDER BAY A","6048262","2015-10-21 05:00","2015","10","21","05:00","7.4","","1.9","","68","","11","","22","","24.1","","99.45","","","","","","NA"
"-89.32","48.37","THUNDER BAY A","6048262","2015-10-21 06:00","2015","10","21","06:00","6.8","","4.3","","84","","10","","25","","19.3","","99.32","","","","","","Rain"
"-89.32","48.37","THUNDER BAY A","6048262","2015-10-21 07:00","2015","10","21","07:00","6.8","","5.1","","89","","10","","19","","11.3","","99.27","","","","","","Rain"
"-89.32","48.37","THUNDER BAY A","6048262","2015-10-21 08:00","2015","10","21","08:00","7.3","","6.3","","93","","9","","28","","32.2","","99.11","","","","","","NA"
"-89.32","48.37","THUNDER BAY A","6048262","2015-10-21 09:00","2015","10","21","09:00","7.8","","6.8","","93","","10","","19","","32.2","","99.02","","","","","","Rain"
"-89.32","48.37","THUNDER BAY A","6048262","2015-10-21 10:00","2015","10","21","10:00","8.1","","7.0","","93","","10","","17","","32.2","","98.88","","","","","","Rain"
"-89.32","48.37","THUNDER BAY A","6048262","2015-10-21 11:00","2015","10","21","11:00","8.6","","7.7","","94","","10","","8","","32.2","","98.78","","","","","","NA"
"-89.32","48.37","THUNDER BAY A","6048262","2015-10-21 12:00","2015","10","21","12:00","8.8","","8.1","","95","","32","","7","","32.2","","98.68","","","","","","NA"
"-89.32","48.37","THUNDER BAY A","6048262","2015-10-21 13:00","2015","10","21","13:00","8.7","","8.3","","97","","36","","5","","24.1","","98.56","","","","","","Cloudy"
"-89.32","48.37","THUNDER BAY A","6048262","2015-10-21 14:00","2015","10","21","14:00","8.5","","8.4","","99","","28","","8","","4.8","","98.51","","","","","","Rain,Fog"
"-89.32","48.37","THUNDER BAY A","6048262","2015-10-21 15:00","2015","10","21","15:00","8.2","","7.9","","98","","26","","15","","4.8","","98.56","","","","","","Rain,Fog"
"-89.32","48.37","THUNDER BAY A","6048262","2015-10-21 16:00","2015","10","21","16:00","8.6","","8.2","","97","","27","","15","","16.1","","98.60","","","","","","Rain"
"-89.32","48.37","THUNDER BAY A","6048262","2015-10-21 17:00","2015","10","21","17:00","7.9","","6.4","","90","","32","","20","","24.1","","98.76","","","","","","Rain"
"-89.32","48.37","THUNDER BAY A","6048262","2015-10-21 18:00","2015","10","21","18:00","6.8","","5.0","","88","","29","","25","","32.2","","98.87","","","","","","NA"
"-89.32","48.37","THUNDER BAY A","6048262","2015-10-21 19:00","2015","10","21","19:00","6.5","","4.8","","89","","30","","16","","24.1","","99.03","","","","","","Rain"
"-89.32","48.37","THUNDER BAY A","6048262","2015-10-21 20:00","2015","10","21","20:00","6.4","","4.6","","88","","29","","16","","24.1","","99.10","","","","","","NA"
"-89.32","48.37","THUNDER BAY A","6048262","2015-10-21 21:00","2015","10","21","21:00","5.3","","4.4","","94","","26","","10","","24.1","","99.16","","","","","","Rain"
"-89.32","48.37","THUNDER BAY A","6048262","2015-10-21 22:00","2015","10","21","22:00","4.6","","3.1","","90","","25","","10","","24.1","","99.19","","","","","","Mainly Clear"
"-89.32","48.37","THUNDER BAY A","6048262","2015-10-21 23:00","2015","10","21","23:00","3.3","","2.6","","95","","25","","14","","24.1","","99.21","","","","","","NA"
"-89.32","48.37","THUNDER BAY A","6048262","2015-10-22 00:00","2015","10","22","00:00","4.3","","3.3","","93","","25","","10","","24.1","","99.22","","","","","","NA"
"-89.32","48.37","THUNDER BAY A","6048262","2015-10-22 01:00","2015","10","22","01:00","4.9","","3.9","","93","","24","","11","","24.1","","99.21","","","","","","Cloudy"
"-89.32","48.37","THUNDER BAY A","6048262","2015-10-22 02:00","2015","10","22","02:00","6.5","","4.5","","87","","25","","16","","24.1","","99.24","","","","","","NA"
"-89.32","48.37","THUNDER BAY A","6048262","2015-10-22 03:00","2015","10","22","03:00","5.5","","3.5","","87","","29","","15","","24.1","","99.31","","","","","","NA"
"-89.32","48.37","THUNDER BAY A","6048262","2015-10-22 04:00","2015","10","22","04:00","6.1","","3.8","","85","","27","","14","","24.1","","99.38","","","","","","Mostly Cloudy"
"-89.32","48.37","THUNDER BAY A","6048262","2015-10-22 05:00","2015","10","22","05:00","6.0","","3.5","","84","","28","","17","","24.1","","99.48","","","","","","NA"
"-89.32","48.37","THUNDER BAY A","6048262","2015-10-22 06:00","2015","10","22","06:00","6.0","","3.3","","83","","28","","12","","24.1","","99.60","","","","","","NA"
"-89.32","48.37","THUNDER BAY A","6048262","2015-10-22 07:00","2015","10","22","07:00","5.4","","3.7","","89","","36","","7","","32.2","","99.72","","","","","","Rain"
"-89.32","48.37","THUNDER BAY A","6048262","2015-10-22 08:00","2015","10","22","08:00","5.0","","4.3","","95","","30","","7","","32.2","","99.85","","","","","","Rain"
"-89.32","48.37","THUNDER BAY A","6048262","2015-10-22 09:00","2015","10","22","09:00","5.1","","3.1","","87","","36","","5","","32.2","","99.96","","","","","","NA"
"-89.32","48.37","THUNDER BAY A","6048262","2015-10-22 10:00","2015","10","22","10:00","6.1","","3.5","","84","","36","","11","","32.2","","100.06","","","","","","Mostly Cloudy"
"-89.32","48.37","THUNDER BAY A","6048262","2015-10-22 11:00","2015","10","22","11:00","7.3","","1.0","","64","","33","","14","","32.2","","100.15","","","","","","NA"
"-89.32","48.37","THUNDER BAY A","6048262","2015-10-22 12:00","2015","10","22","12:00","7.6","","0.6","","61","","33","","12","","32.2","","100.18","","","","","","NA"
"-89.32","48.37","THUNDER BAY A","6048262","2015-10-22 13:00","2015","10","22","13:00","7.3","","0.5","","62","","27","","4","","32.2","","100.26","","","","","","Mostly Cloudy"
"-89.32","48.37","THUNDER BAY A","6048262","2015-10-22 14:00","2015","10","22","14:00","7.9","","0.9","","61","","27","","7","","32.2","","100.27","","","","","","NA"
"-89.32","48.37","THUNDER BAY A","6048262","2015-10-22 15:00","2015","10","22","15:00","7.8","","1.7","","65","","8","","18","","32.2","","100.25","","","","","","NA"
"-89.32","48.37","THUNDER BAY A","6048262","2015-10-22 16:00","2015","10","22","16:00","6.9","","1.2","","67","","11","","17","","32.2","","100.29","","","","","","Mostly Cloudy"
"-89.32","48.37","THUNDER BAY A","6048262","2015-10-22 17:00","2015","10","22","17:00","6.5","","1.4","","70","","12","","11","","32.2","","100.34","","","","","","NA"
"-89.32","48.37","THUNDER BAY A","6048262","2015-10-22 18:00","2015","10","22","18:00","4.6","","1.1","","78","","13","","7","","32.2","","100.37","","","","","","NA"
"-89.32","48.37","THUNDER BAY A","6048262","2015-10-22 19:00","2015","10","22","19:00","4.9","","1.6","","79","","11","","11","","24.1","","100.41","","","","","","Mostly Cloudy"
"-89.32","48.37","THUNDER BAY A","6048262","2015-10-22 20:00","2015","10","22","20:00","5.0","","1.5","","78","","9","","16","","24.1","","100.41","","","","","","NA"
"-89.32","48.37","THUNDER BAY A","6048262","2015-10-22 21:00","2015","10","22","21:00","4.8","","1.1","","77","","7","","18","","24.1","","100.39","","","","","","NA"
"-89.32","48.37","THUNDER BAY A","6048262","2015-10-22 22:00","2015","10","22","22:00","5.1","","1.6","","78","","11","","17","","24.1","","100.44","","","","","","Mostly Cloudy"
"-89.32","48.37","THUNDER BAY A","6048262","2015-10-22 23:00","2015","10","22","23:00","4.7","","1.7","","81","","10","","15","","24.1","","100.47","","","","","","NA"
"-89.32","48.37","THUNDER BAY A","6048262","2015-10-23 00:00","2015","10","23","00:00","5.0","","1.0","","75","","12","","14","","24.1","","100.46","","","","","","NA"
"-89.32","48.37","THUNDER BAY A","6048262","2015-10-23 01:00","2015","10","23","01:00","4.7","","1.0","","77","","13","","12","","24.1","","100.45","","","","","","Cloudy"
"-89.32","48.37","THUNDER BAY A","6048262","2015-10-23 02:00","2015","10","23","02:00","4.6","","1.1","","78","","12","","13","","24.1","","100.43","","","","","","NA"
"-89.32","48.37","THUNDER BAY A","6048262","2015-10-23 03:00","2015","10","23","03:00","4.5","","1.2","","79","","12","","9","","24.1","","100.34","","","","","","NA"
"-89.32","48.37","THUNDER BAY A","6048262","2015-10-23 04:00","2015","10","23","04:00","4.5","","1.2","","79","","11","","11","","24.1","","100.29","","","","","","Cloudy"
"-89.32","48.37","THUNDER BAY A","6048262","2015-10-23 05:00","2015","10","23","05:00","4.7","","1.4","","79","","10","","14","","24.1","","100.18","","","","","","NA"
"-89.32","48.37","THUNDER BAY A","6048262","2015-10-23 06:00","2015","10","23","06:00","4.9","","1.8","","80","","12","","15","","24.1","","100.18","","","","","","NA"
"-89.32","48.37","THUNDER BAY A","6048262","2015-10-23 07:00","2015","10","23","07:00","5.2","","2.2","","81","","12","","10","","32.2","","100.12","","","","","","Cloudy"
"-89.32","48.37","THUNDER BAY A","6048262","2015-10-23 08:00","2015","10","23","08:00","5.3","","2.5","","82","","13","","4","","32.2","","100.09","","","","","","NA"
"-89.32","48.37","THUNDER BAY A","6048262","2015-10-23 09:00","2015","10","23","09:00","6.0","","3.0","","81","","13","","9","","32.2","","100.02","","","","","","NA"
"-89.32","48.37","THUNDER BAY A","6048262","2015-10-23 10:00","2015","10","23","10:00","6.7","","3.7","","81","","13","","14","","32.2","","99.97","","","","","","Cloudy"
"-89.32","48.37","THUNDER BAY A","6048262","2015-10-23 11:00","2015","10","23","11:00","7.5","","4.1","","79","","12","","17","","32.2","","99.86","","","","","","NA"
"-89.32","48.37","THUNDER BAY A","6048262","2015-10-23 12:00","2015","10","23","12:00","7.5","","4.1","","79","","14","","17","","32.2","","99.79","","","","","","NA"
"-89.32","48.37","THUNDER BAY A","6048262","2015-10-23 13:00","2015","10","23","13:00","7.3","","4.6","","83","","12","","19","","32.2","","99.63","","","","","","Rain"
"-89.32","48.37","THUNDER BAY A","6048262","2015-10-23 14:00","2015","10","23","14:00","6.9","","4.6","","85","","14","","9","","24.1","","99.52","","","","","","Rain"
"-89.32","48.37","THUNDER BAY A","6048262","2015-10-23 15:00","2015","10","23","15:00","6.7","","5.2","","90","","13","","15","","24.1","","99.39","","","","","","Rain"
"-89.32","48.37","THUNDER BAY A","6048262","2015-10-23 16:00","2015","10","23","16:00","6.5","","5.1","","91","","11","","13","","24.1","","99.32","","","","","","Rain"
"-89.32","48.37","THUNDER BAY A","6048262","2015-10-23 17:00","2015","10","23","17:00","6.3","","4.8","","90","","11","","14","","24.1","","99.21","","","","","","Rain"
"-89.32","48.37","THUNDER BAY A","6048262","2015-10-23 18:00","2015","10","23","18:00","6.4","","4.6","","88","","12","","17","","24.1","","99.06","","","","","","Rain"
"-89.32","48.37","THUNDER BAY A","6048262","2015-10-23 19:00","2015","10","23","19:00","6.8","","5.3","","90","","9","","13","","24.1","","99.03","","","","","","Cloudy"
"-89.32","48.37","THUNDER BAY A","6048262","2015-10-23 20:00","2015","10","23","20:00","7.3","","5.8","","90","","11","","15","","24.1","","98.92","","","","","","Rain"
"-89.32","48.37","THUNDER BAY A","6048262","2015-10-23 21:00","2015","10","23","21:00","7.3","","6.1","","92","","10","","13","","16.1","","98.80","","","","","","Rain"
"-89.32","48.37","THUNDER BAY A","6048262","2015-10-23 22:00","2015","10","23","22:00","7.5","","6.6","","94","","10","","12","","24.1","","98.67","","","","","","Drizzle"
"-89.32","48.37","THUNDER BAY A","6048262","2015-10-23 23:00","2015","10","23","23:00","7.6","","7.0","","96","","9","","8","","9.7","","98.54","","","","","","Rain"
"-89.32","48.37","THUNDER BAY A","6048262","2015-10-24 00:00","2015","10","24","00:00","7.9","","7.5","","97","","9","","6","","6.4","","98.44","","","","","","Drizzle,Fog"
"-89.32","48.37","THUNDER BAY A","6048262","2015-10-24 01:00","2015","10","24","01:00","8.6","","7.7","","94","","16","","9","","19.3","","98.36","","","","","","Rain"
"-89.32","48.37","THUNDER BAY A","6048262","2015-10-24 02:00","2015","10","24","02:00","8.3","","7.7","","96","","9","","4","","11.3","","98.25","","","","","","Rain"
"-89.32","48.37","THUNDER BAY A","6048262","2015-10-24 03:00","2015","10","24","03:00","8.3","","7.9","","97","","3","","4","","16.1","","98.16","","","","","","NA"
"-89.32","48.37","THUNDER BAY A","6048262","2015-10-24 04:00","2015","10","24","04:00","8.0","","7.7","","98","","36","","2","","6.4","","98.10","","","","","","Fog"
"-89.32","48.37","THUNDER BAY A","6048262","2015-10-24 05:00","2015","10","24","05:00","7.9","","7.6","","98","","29","","7","","4.8","","98.07","","","","","","Rain,Fog"
"-89.32","48.37","THUNDER BAY A","6048262","2015-10-24 06:00","2015","10","24","06:00","8.0","","7.7","","98","","27","","9","","4.8","","98.08","","","","","","Fog"
"-89.32","48.37","THUNDER BAY A","6048262","2015-10-24 07:00","2015","10","24","07:00","8.0","","7.6","","97","","28","","14","","11.3","","98.12","","","","","","Rain"
"-89.32","48.37","THUNDER BAY A","6048262","2015-10-24 08:00","2015","10","24","08:00","7.7","","6.7","","93","","30","","11","","16.1","","98.15","","","","","","Rain"
"-89.32","48.37","THUNDER BAY A","6048262","2015-10-24 09:00","2015","10","24","09:00","7.5","","6.3","","92","","30","","11","","32.2","","98.21","","","","","","Rain"
"-89.32","48.37","THUNDER BAY A","6048262","2015-10-24 10:00","2015","10","24","10:00","7.5","","6.1","","91","","31","","12","","32.2","","98.28","","","","","","Cloudy"
"-89.32","48.37","THUNDER BAY A","6048262","2015-10-24 11:00","2015","10","24","11:00","7.7","","5.7","","87","","32","","17","","32.2","","98.34","","","","","","NA"
"-89.32","48.37","THUNDER BAY A","6048262","2015-10-24 12:00","2015","10","24","12:00","8.1","","5.4","","83","","33","","15","","32.2","","98.39","","","","","","NA"
"-89.32","48.37","THUNDER BAY A","6048262","2015-10-24 13:00","2015","10","24","13:00","8.8","","3.5","","69","","31","","31","","32.2","","98.45","","","","","","Mostly Cloudy"
"-89.32","48.37","THUNDER BAY A","6048262","2015-10-24 14:00","2015","10","24","14:00","9.4","","3.2","","65","","31","","26","","32.2","","98.52","","","","","","NA"
"-89.32","48.37","THUNDER BAY A","6048262","2015-10-24 15:00","2015","10","24","15:00","10.0","","1.9","","57","","33","","30","","32.2","","98.59","","","","","","NA"
"-89.32","48.37","THUNDER BAY A","6048262","2015-10-24 16:00","2015","10","24","16:00","9.5","","1.7","","58","","33","","23","","32.2","","98.68","","","","","","Mostly Cloudy"
"-89.32","48.37","THUNDER BAY A","6048262","2015-10-24 17:00","2015","10","24","17:00","9.2","","0.7","","55","","32","","22","","32.2","","98.80","","","","","","NA"
"-89.32","48.37","THUNDER BAY A","6048262","2015-10-24 18:00","2015","10","24","18:00","7.9","","0.9","","61","","31","","20","","32.2","","98.91","","","","","","NA"
"-89.32","48.37","THUNDER BAY A","6048262","2015-10-24 19:00","2015","10","24","19:00","6.0","","1.0","","70","","28","","10","","24.1","","99.02","","","","","","Mainly Clear"
"-89.32","48.37","THUNDER BAY A","6048262","2015-10-24 20:00","2015","10","24","20:00","4.9","","0.7","","74","","26","","8","","24.1","","99.10","","","","","","NA"
"-89.32","48.37","THUNDER BAY A","6048262","2015-10-24 21:00","2015","10","24","21:00","2.7","","0.1","","83","","23","","10","","24.1","","99.13","","","","","","NA"
"-89.32","48.37","THUNDER BAY A","6048262","2015-10-24 22:00","2015","10","24","22:00","2.6","","1.0","","89","","33","","4","","24.1","","99.20","","","","","","Mostly Cloudy"
"-89.32","48.37","THUNDER BAY A","6048262","2015-10-24 23:00","2015","10","24","23:00","3.8","","1.4","","84","","36","","2","","24.1","","99.24","","","","","","NA"
"-89.32","48.37","THUNDER BAY A","6048262","2015-10-25 00:00","2015","10","25","00:00","3.9","","2.1","","88","","27","","8","","24.1","","99.28","","","","","","Rain Showers"
"-89.32","48.37","THUNDER BAY A","6048262","2015-10-25 01:00","2015","10","25","01:00","4.2","","2.2","","87","","32","","6","","24.1","","99.34","","","","","","Cloudy"
"-89.32","48.37","THUNDER BAY A","6048262","2015-10-25 02:00","2015","10","25","02:00","2.9","","2.0","","94","","26","","7","","24.1","","99.43","","","","","","NA"
"-89.32","48.37","THUNDER BAY A","6048262","2015-10-25 03:00","2015","10","25","03:00","4.5","","2.7","","88","","30","","10","","24.1","","99.56","","","","","","NA"
"-89.32","48.37","THUNDER BAY A","6048262","2015-10-25 04:00","2015","10","25","04:00","4.4","","2.1","","85","","30","","11","","24.1","","99.64","","","","","","Cloudy"
"-89.32","48.37","THUNDER BAY A","6048262","2015-10-25 05:00","2015","10","25","05:00","2.4","","0.5","","87","","29","","13","","24.1","","99.75","","","","","","NA"
"-89.32","48.37","THUNDER BAY A","6048262","2015-10-25 06:00","2015","10","25","06:00","1.2","","-0.9","","86","","30","","13","","24.1","","99.87","","","","","","NA"
"-89.32","48.37","THUNDER BAY A","6048262","2015-10-25 07:00","2015","10","25","07:00","0.3","","-1.6","","87","","29","","10","","24.1","","99.99","","","","","","Mainly Clear"
"-89.32","48.37","THUNDER BAY A","6048262","2015-10-25 08:00","2015","10","25","08:00","-1.6","","-2.4","","94","","28","","8","","32.2","","100.08","","","","-5","","NA"
"-89.32","48.37","THUNDER BAY A","6048262","2015-10-25 09:00","2015","10","25","09:00","2.1","","-0.8","","81","","28","","17","","32.2","","100.21","","","","","","NA"
"-89.32","48.37","THUNDER BAY A","6048262","2015-10-25 10:00","2015","10","25","10:00","3.8","","-1.6","","68","","30","","18","","32.2","","100.30","","","","","","Mainly Clear"
"-89.32","48.37","THUNDER BAY A","6048262","2015-10-25 11:00","2015","10","25","11:00","4.3","","-1.9","","64","","31","","18","","32.2","","100.34","","","","","","NA"
"-89.32","48.37","THUNDER BAY A","6048262","2015-10-25 12:00","2015","10","25","12:00","5.8","","-1.6","","59","","34","","13","","32.2","","100.39","","","","","","NA"
"-89.32","48.37","THUNDER BAY A","6048262","2015-10-25 13:00","2015","10","25","13:00","5.5","","-2.8","","55","","32","","10","","32.2","","100.37","","","","","","Mainly Clear"
"-89.32","48.37","THUNDER BAY A","6048262","2015-10-25 14:00","2015","10","25","14:00","6.7","","-3.5","","48","","35","","8","","32.2","","100.34","","","","","","NA"
"-89.32","48.37","THUNDER BAY A","6048262","2015-10-25 15:00","2015","10","25","15:00","7.4","","-5.0","","41","","36","","12","","32.2","","100.32","","","","","","NA"
"-89.32","48.37","THUNDER BAY A","6048262","2015-10-25 16:00","2015","10","25","16:00","7.5","","-4.3","","43","","26","","10","","32.2","","100.31","","","","","","Clear"
"-89.32","48.37","THUNDER BAY A","6048262","2015-10-25 17:00","2015","10","25","17:00","6.9","","-4.2","","45","","22","","11","","32.2","","100.34","","","","","","NA"
"-89.32","48.37","THUNDER BAY A","6048262","2015-10-25 18:00","2015","10","25","18:00","4.4","","-1.0","","68","","20","","15","","32.2","","100.38","","","","","","NA"
"-89.32","48.37","THUNDER BAY A","6048262","2015-10-25 19:00","2015","10","25","19:00","2.5","","-1.1","","77","","21","","9","","24.1","","100.42","","","","","","Clear"
"-89.32","48.37","THUNDER BAY A","6048262","2015-10-25 20:00","2015","10","25","20:00","-0.1","","-1.5","","90","","32","","7","","32.2","","100.44","","","","-3","","NA"
"-89.32","48.37","THUNDER BAY A","6048262","2015-10-25 21:00","2015","10","25","21:00","-1.7","","-2.5","","94","","36","","2","","24.1","","100.45","","","","-2","","NA"
"-89.32","48.37","THUNDER BAY A","6048262","2015-10-25 22:00","2015","10","25","22:00","-2.6","","-2.9","","98","","31","","8","","24.1","","100.47","","","","-6","","Clear"
"-89.32","48.37","THUNDER BAY A","6048262","2015-10-25 23:00","2015","10","25","23:00","-2.4","","-2.8","","97","","24","","5","","24.1","","100.47","","","","-4","","NA"
"-89.32","48.37","THUNDER BAY A","6048262","2015-10-26 00:00","2015","10","26","00:00","-3.2","","-3.6","","97","","28","","4","","24.1","","100.47","","","","-5","","NA"
"-89.32","48.37","THUNDER BAY A","6048262","2015-10-26 01:00","2015","10","26","01:00","-2.8","","-3.5","","95","","25","","5","","24.1","","100.48","","","","-5","","Clear"
"-89.32","48.37","THUNDER BAY A","6048262","2015-10-26 02:00","2015","10","26","02:00","-3.4","","-3.8","","97","","25","","5","","24.1","","100.50","","","","-5","","NA"
"-89.32","48.37","THUNDER BAY A","6048262","2015-10-26 03:00","2015","10","26","03:00","-4.0","","-4.3","","98","","26","","7","","24.1","","100.53","","","","-7","","NA"
"-89.32","48.37","THUNDER BAY A","6048262","2015-10-26 04:00","2015","10","26","04:00","-5.1","","-5.5","","97","","23","","5","","24.1","","100.52","","","","-7","","Mainly Clear"
"-89.32","48.37","THUNDER BAY A","6048262","2015-10-26 05:00","2015","10","26","05:00","-4.8","","-5.1","","98","","29","","8","","24.1","","100.55","","","","-8","","NA"
"-89.32","48.37","THUNDER BAY A","6048262","2015-10-26 06:00","2015","10","26","06:00","-4.9","","-5.3","","97","","21","","9","","24.1","","100.58","","","","-9","","NA"
"-89.32","48.37","THUNDER BAY A","6048262","2015-10-26 07:00","2015","10","26","07:00","-4.8","","-5.1","","98","","26","","7","","24.1","","100.58","","","","-8","","Mainly Clear"
"-89.32","48.37","THUNDER BAY A","6048262","2015-10-26 08:00","2015","10","26","08:00","-4.6","","-5.0","","97","","29","","7","","32.2","","100.59","","","","-8","","NA"
"-89.32","48.37","THUNDER BAY A","6048262","2015-10-26 09:00","2015","10","26","09:00","-2.1","","-2.7","","96","","23","","7","","32.2","","100.62","","","","-5","","NA"
"-89.32","48.37","THUNDER BAY A","6048262","2015-10-26 10:00","2015","10","26","10:00","1.1","","-0.5","","89","","27","","7","","32.2","","100.66","","","","","","Mainly Clear"
"-89.32","48.37","THUNDER BAY A","6048262","2015-10-26 11:00","2015","10","26","11:00","4.4","","-0.2","","72","","25","","3","","32.2","","100.65","","","","","","NA"
"-89.32","48.37","THUNDER BAY A","6048262","2015-10-26 12:00","2015","10","26","12:00","6.9","","-0.8","","58","","10","","4","","24.1","","100.64","","","","","","NA"
"-89.32","48.37","THUNDER BAY A","6048262","2015-10-26 13:00","2015","10","26","13:00","8.3","","-0.7","","53","","8","","8","","32.2","","100.58","","","","","","Mainly Clear"
"-89.32","48.37","THUNDER BAY A","6048262","2015-10-26 14:00","2015","10","26","14:00","8.7","","-0.6","","52","","10","","9","","32.2","","100.50","","","","","","NA"
"-89.32","48.37","THUNDER BAY A","6048262","2015-10-26 15:00","2015","10","26","15:00","8.6","","0.6","","57","","11","","14","","32.2","","100.46","","","","","","NA"
"-89.32","48.37","THUNDER BAY A","6048262","2015-10-26 16:00","2015","10","26","16:00","8.7","","1.6","","61","","11","","13","","32.2","","100.44","","","","","","Mainly Clear"
"-89.32","48.37","THUNDER BAY A","6048262","2015-10-26 17:00","2015","10","26","17:00","7.4","","1.9","","68","","12","","13","","32.2","","100.44","","","","","","NA"
"-89.32","48.37","THUNDER BAY A","6048262","2015-10-26 18:00","2015","10","26","18:00","4.5","","1.2","","79","","33","","3","","32.2","","100.46","","","","","","NA"
"-89.32","48.37","THUNDER BAY A","6048262","2015-10-26 19:00","2015","10","26","19:00","1.3","","0.3","","93","","32","","3","","24.1","","100.49","","","","","","Mainly Clear"
"-89.32","48.37","THUNDER BAY A","6048262","2015-10-26 20:00","2015","10","26","20:00","0.0","","-0.9","","94","","33","","5","","24.1","","100.49","","","","-2","","NA"
"-89.32","48.37","THUNDER BAY A","6048262","2015-10-26 21:00","2015","10","26","21:00","-1.5","","-1.9","","97","","27","","5","","24.1","","100.52","","","","-3","","NA"
"-89.32","48.37","THUNDER BAY A","6048262","2015-10-26 22:00","2015","10","26","22:00","-2.2","","-2.6","","97","","26","","4","","24.1","","100.55","","","","-4","","Clear"
"-89.32","48.37","THUNDER BAY A","6048262","2015-10-26 23:00","2015","10","26","23:00","-2.3","","-2.4","","99","","27","","6","","24.1","","100.55","","","","-5","","NA"
"-89.32","48.37","THUNDER BAY A","6048262","2015-10-27 00:00","2015","10","27","00:00","-2.6","","-2.7","","99","","26","","7","","24.1","","100.54","","","","-5","","NA"
"-89.32","48.37","THUNDER BAY A","6048262","2015-10-27 01:00","2015","10","27","01:00","-2.4","","-2.5","","99","","28","","6","","24.1","","100.55","","","","-5","","Clear"
"-89.32","48.37","THUNDER BAY A","6048262","2015-10-27 02:00","2015","10","27","02:00","-3.0","","-3.1","","99","","25","","6","","24.1","","100.56","","","","-5","","NA"
"-89.32","48.37","THUNDER BAY A","6048262","2015-10-27 03:00","2015","10","27","03:00","-3.5","","-3.6","","99","","25","","4","","56.3","","100.57","","","","-5","","NA"
"-89.32","48.37","THUNDER BAY A","6048262","2015-10-27 04:00","2015","10","27","04:00","-3.4","","-3.5","","99","","27","","7","","24.1","","100.54","","","","-6","","Clear"
"-89.32","48.37","THUNDER BAY A","6048262","2015-10-27 05:00","2015","10","27","05:00","-3.9","","-4.2","","98","","23","","8","","24.1","","100.49","","","","-7","","NA"
"-89.32","48.37","THUNDER BAY A","6048262","2015-10-27 06:00","2015","10","27","06:00","-3.5","","-3.6","","99","","32","","5","","24.1","","100.46","","","","-6","","NA"
"-89.32","48.37","THUNDER BAY A","6048262","2015-10-27 07:00","2015","10","27","07:00","-2.6","","-2.9","","98","","25","","5","","24.1","","100.45","","","","-5","","Mostly Cloudy"
"-89.32","48.37","THUNDER BAY A","6048262","2015-10-27 08:00","2015","10","27","08:00","-2.1","","-2.5","","97","","30","","3","","32.2","","100.44","","","","-3","","NA"
"-89.32","48.37","THUNDER BAY A","6048262","2015-10-27 09:00","2015","10","27","09:00","-0.8","","-1.1","","98","","25","","5","","32.2","","100.47","","","","-2","","NA"
"-89.32","48.37","THUNDER BAY A","6048262","2015-10-27 10:00","2015","10","27","10:00","0.8","","0.5","","98","","31","","4","","24.1","","100.39","","","","","","Cloudy"
"-89.32","48.37","THUNDER BAY A","6048262","2015-10-27 11:00","2015","10","27","11:00","5.5","","5.1","","97","","12","","8","","32.2","","100.36","","","","","","NA"
"-89.32","48.37","THUNDER BAY A","6048262","2015-10-27 12:00","2015","10","27","12:00","7.7","","6.0","","89","","11","","22","","32.2","","100.29","","","","","","NA"
"-89.32","48.37","THUNDER BAY A","6048262","2015-10-27 13:00","2015","10","27","13:00","8.2","","6.5","","89","","11","","23","","32.2","","100.20","","","","","","Cloudy"
"-89.32","48.37","THUNDER BAY A","6048262","2015-10-27 14:00","2015","10","27","14:00","8.5","","6.5","","87","","11","","24","","32.2","","100.08","","","","","","NA"
"-89.32","48.37","THUNDER BAY A","6048262","2015-10-27 15:00","2015","10","27","15:00","8.4","","6.4","","87","","10","","22","","32.2","","100.00","","","","","","NA"
"-89.32","48.37","THUNDER BAY A","6048262","2015-10-27 16:00","2015","10","27","16:00","8.4","","6.5","","88","","10","","17","","32.2","","99.93","","","","","","Cloudy"
"-89.32","48.37","THUNDER BAY A","6048262","2015-10-27 17:00","2015","10","27","17:00","8.2","","6.3","","88","","9","","25","","32.2","","99.85","","","","","","Rain"
"-89.32","48.37","THUNDER BAY A","6048262","2015-10-27 18:00","2015","10","27","18:00","8.1","","6.7","","91","","10","","21","","24.1","","99.80","","","","","","Rain"
"-89.32","48.37","THUNDER BAY A","6048262","2015-10-27 19:00","2015","10","27","19:00","8.1","","6.9","","92","","8","","16","","24.1","","99.74","","","","","","Cloudy"
"-89.32","48.37","THUNDER BAY A","6048262","2015-10-27 20:00","2015","10","27","20:00","8.5","","7.3","","92","","8","","16","","24.1","","99.64","","","","","","NA"
"-89.32","48.37","THUNDER BAY A","6048262","2015-10-27 21:00","2015","10","27","21:00","8.4","","7.3","","93","","7","","17","","24.1","","99.53","","","","","","NA"
"-89.32","48.37","THUNDER BAY A","6048262","2015-10-27 22:00","2015","10","27","22:00","8.7","","7.3","","91","","6","","13","","24.1","","99.41","","","","","","Cloudy"
"-89.32","48.37","THUNDER BAY A","6048262","2015-10-27 23:00","2015","10","27","23:00","8.8","","7.1","","89","","8","","17","","24.1","","99.31","","","","","","NA"
"-89.32","48.37","THUNDER BAY A","6048262","2015-10-28 00:00","2015","10","28","00:00","8.8","","6.9","","88","","7","","7","","24.1","","99.21","","","","","","NA"
"-89.32","48.37","THUNDER BAY A","6048262","2015-10-28 01:00","2015","10","28","01:00","9.0","","7.1","","88","","6","","13","","24.1","","99.07","","","","","","Cloudy"
"-89.32","48.37","THUNDER BAY A","6048262","2015-10-28 02:00","2015","10","28","02:00","8.7","","7.0","","89","","8","","12","","24.1","","98.94","","","","","","NA"
"-89.32","48.37","THUNDER BAY A","6048262","2015-10-28 03:00","2015","10","28","03:00","8.4","","6.4","","87","","8","","14","","24.1","","98.81","","","","","","NA"
"-89.32","48.37","THUNDER BAY A","6048262","2015-10-28 04:00","2015","10","28","04:00","8.4","","6.0","","85","","11","","15","","24.1","","98.66","","","","","","Cloudy"
"-89.32","48.37","THUNDER BAY A","6048262","2015-10-28 05:00","2015","10","28","05:00","7.8","","6.8","","93","","9","","15","","6.4","","98.48","","","","","","Rain"
"-89.32","48.37","THUNDER BAY A","6048262","2015-10-28 06:00","2015","10","28","06:00","7.5","","6.5","","93","","8","","22","","24.1","","98.31","","","","","","Rain"
"-89.32","48.37","THUNDER BAY A","6048262","2015-10-28 07:00","2015","10","28","07:00","7.1","","6.1","","93","","8","","19","","16.1","","98.11","","","","","","Rain"
"-89.32","48.37","THUNDER BAY A","6048262","2015-10-28 08:00","2015","10","28","08:00","7.0","","5.8","","92","","8","","27","","32.2","","97.84","","","","","","Rain"
"-89.32","48.37","THUNDER BAY A","6048262","2015-10-28 09:00","2015","10","28","09:00","7.2","","4.9","","85","","9","","27","","32.2","","97.67","","","","","","NA"
"-89.32","48.37","THUNDER BAY A","6048262","2015-10-28 10:00","2015","10","28","10:00","6.9","","5.1","","88","","9","","37","","9.7","","97.46","","","","","","Rain"
"-89.32","48.37","THUNDER BAY A","6048262","2015-10-28 11:00","2015","10","28","11:00","6.4","","5.2","","92","","8","","31","","8.1","","97.29","","","","","","Rain,Fog"
"-89.32","48.37","THUNDER BAY A","6048262","2015-10-28 12:00","2015","10","28","12:00","6.1","","5.2","","94","","7","","32","","6.4","","97.12","","","","","","Rain,Fog"
"-89.32","48.37","THUNDER BAY A","6048262","2015-10-28 13:00","2015","10","28","13:00","6.0","","5.3","","95","","6","","28","","8.1","","96.90","","","","","","Rain"
"-89.32","48.37","THUNDER BAY A","6048262","2015-10-28 14:00","2015","10","28","14:00","5.6","","4.9","","95","","5","","24","","9.7","","96.69","","","","","","Rain,Fog"
"-89.32","48.37","THUNDER BAY A","6048262","2015-10-28 15:00","2015","10","28","15:00","5.4","","4.7","","95","","5","","19","","9.7","","96.59","","","","","","Rain,Fog"
"-89.32","48.37","THUNDER BAY A","6048262","2015-10-28 16:00","2015","10","28","16:00","6.0","","5.1","","94","","4","","21","","9.7","","96.50","","","","","","Rain,Fog"
"-89.32","48.37","THUNDER BAY A","6048262","2015-10-28 17:00","2015","10","28","17:00","5.6","","4.9","","95","","2","","8","","9.7","","96.47","","","","","","Rain,Fog"
"-89.32","48.37","THUNDER BAY A","6048262","2015-10-28 18:00","2015","10","28","18:00","5.4","","4.8","","96","","3","","12","","12.9","","96.42","","","","","","Rain"
"-89.32","48.37","THUNDER BAY A","6048262","2015-10-28 19:00","2015","10","28","19:00","5.2","","4.3","","94","","2","","9","","16.1","","96.41","","","","","","Rain"
"-89.32","48.37","THUNDER BAY A","6048262","2015-10-28 20:00","2015","10","28","20:00","5.0","","4.1","","94","","2","","9","","16.1","","96.40","","","","","","Rain"
"-89.32","48.37","THUNDER BAY A","6048262","2015-10-28 21:00","2015","10","28","21:00","4.8","","3.9","","94","","34","","5","","12.9","","96.41","","","","","","Rain"
"-89.32","48.37","THUNDER BAY A","6048262","2015-10-28 22:00","2015","10","28","22:00","4.4","","3.2","","92","","1","","8","","16.1","","96.41","","","","","","Rain"
"-89.32","48.37","THUNDER BAY A","6048262","2015-10-28 23:00","2015","10","28","23:00","4.0","","3.4","","96","","33","","7","","4.8","","96.44","","","","","","Rain,Fog"
"-89.32","48.37","THUNDER BAY A","6048262","2015-10-29 00:00","2015","10","29","00:00","3.9","","3.0","","94","","34","","12","","6.4","","96.43","","","","","","Rain,Fog"
"-89.32","48.37","THUNDER BAY A","6048262","2015-10-29 01:00","2015","10","29","01:00","4.0","","2.7","","91","","31","","11","","16.1","","96.44","","","","","","Cloudy"
"-89.32","48.37","THUNDER BAY A","6048262","2015-10-29 02:00","2015","10","29","02:00","3.9","","2.6","","91","","35","","10","","16.1","","96.52","","","","","","Rain"
"-89.32","48.37","THUNDER BAY A","6048262","2015-10-29 03:00","2015","10","29","03:00","3.5","","2.0","","90","","31","","8","","19.3","","96.58","","","","","","Rain"
"-89.32","48.37","THUNDER BAY A","6048262","2015-10-29 04:00","2015","10","29","04:00","2.7","","1.5","","92","","31","","8","","16.1","","96.64","","","","","","Rain"
"-89.32","48.37","THUNDER BAY A","6048262","2015-10-29 05:00","2015","10","29","05:00","2.2","","1.2","","93","","28","","11","","16.1","","96.74","","","","","","Rain,Ice Pellets"
"-89.32","48.37","THUNDER BAY A","6048262","2015-10-29 06:00","2015","10","29","06:00","2.3","","1.1","","92","","29","","7","","16.1","","96.85","","","","","","Rain"
"-89.32","48.37","THUNDER BAY A","6048262","2015-10-29 07:00","2015","10","29","07:00","2.7","","1.5","","92","","33","","16","","16.1","","96.96","","","","","","Rain"
"-89.32","48.37","THUNDER BAY A","6048262","2015-10-29 08:00","2015","10","29","08:00","3.1","","1.8","","91","","32","","14","","32.2","","97.10","","","","","","Rain"
"-89.32","48.37","THUNDER BAY A","6048262","2015-10-29 09:00","2015","10","29","09:00","3.8","","1.5","","85","","32","","17","","32.2","","97.26","","","","","","Rain"
"-89.32","48.37","THUNDER BAY A","6048262","2015-10-29 10:00","2015","10","29","10:00","4.1","","1.7","","84","","31","","12","","32.2","","97.40","","","","","","Mostly Cloudy"
"-89.32","48.37","THUNDER BAY A","6048262","2015-10-29 11:00","2015","10","29","11:00","5.9","","2.6","","79","","35","","15","","32.2","","97.54","","","","","","NA"
"-89.32","48.37","THUNDER BAY A","6048262","2015-10-29 12:00","2015","10","29","12:00","6.9","","3.7","","80","","33","","15","","32.2","","97.65","","","","","","NA"
"-89.32","48.37","THUNDER BAY A","6048262","2015-10-29 13:00","2015","10","29","13:00","6.7","","3.3","","79","","33","","22","","32.2","","97.78","","","","","","Mostly Cloudy"
"-89.32","48.37","THUNDER BAY A","6048262","2015-10-29 14:00","2015","10","29","14:00","6.4","","1.7","","72","","32","","20","","32.2","","97.92","","","","","","NA"
"-89.32","48.37","THUNDER BAY A","6048262","2015-10-29 15:00","2015","10","29","15:00","5.9","","1.6","","74","","33","","19","","32.2","","98.05","","","","","","NA"
"-89.32","48.37","THUNDER BAY A","6048262","2015-10-29 16:00","2015","10","29","16:00","5.6","","1.0","","72","","32","","17","","32.2","","98.21","","","","","","Mostly Cloudy"
"-89.32","48.37","THUNDER BAY A","6048262","2015-10-29 17:00","2015","10","29","17:00","5.0","","0.2","","71","","32","","14","","32.2","","98.36","","","","","","NA"
"-89.32","48.37","THUNDER BAY A","6048262","2015-10-29 18:00","2015","10","29","18:00","3.2","","-0.6","","76","","28","","7","","32.2","","98.53","","","","","","NA"
"-89.32","48.37","THUNDER BAY A","6048262","2015-10-29 19:00","2015","10","29","19:00","2.2","","-1.1","","79","","28","","7","","32.2","","98.68","","","","","","Mostly Cloudy"
"-89.32","48.37","THUNDER BAY A","6048262","2015-10-29 20:00","2015","10","29","20:00","1.7","","-1.2","","81","","31","","10","","24.1","","98.75","","","","","","NA"
"-89.32","48.37","THUNDER BAY A","6048262","2015-10-29 21:00","2015","10","29","21:00","-0.3","","-2.1","","88","","22","","9","","24.1","","98.81","","","","-3","","NA"
"-89.32","48.37","THUNDER BAY A","6048262","2015-10-29 22:00","2015","10","29","22:00","-0.9","","-2.5","","89","","24","","8","","24.1","","98.85","","","","-4","","Mainly Clear"
"-89.32","48.37","THUNDER BAY A","6048262","2015-10-29 23:00","2015","10","29","23:00","-1.6","","-2.6","","93","","23","","13","","24.1","","98.90","","","","-6","","NA"
"-89.32","48.37","THUNDER BAY A","6048262","2015-10-30 00:00","2015","10","30","00:00","-1.0","","-1.8","","94","","23","","10","","24.1","","98.97","","","","-5","","NA"
"-89.32","48.37","THUNDER BAY A","6048262","2015-10-30 01:00","2015","10","30","01:00","-0.8","","-2.2","","90","","30","","8","","24.1","","99.00","","","","-4","","Mostly Cloudy"
"-89.32","48.37","THUNDER BAY A","6048262","2015-10-30 02:00","2015","10","30","02:00","-0.4","","-1.7","","91","","28","","6","","24.1","","99.06","","","","-2","","NA"
"-89.32","48.37","THUNDER BAY A","6048262","2015-10-30 03:00","2015","10","30","03:00","0.0","","-1.4","","90","","36","","3","","24.1","","99.08","","","","-1","","NA"
"-89.32","48.37","THUNDER BAY A","6048262","2015-10-30 04:00","2015","10","30","04:00","-0.1","","-1.1","","93","","29","","4","","24.1","","99.12","","","","-1","","Cloudy"
"-89.32","48.37","THUNDER BAY A","6048262","2015-10-30 05:00","2015","10","30","05:00","0.4","","-1.1","","90","","24","","5","","24.1","","99.18","","","","","","NA"
"-89.32","48.37","THUNDER BAY A","6048262","2015-10-30 06:00","2015","10","30","06:00","0.6","","-1.3","","87","","22","","7","","24.1","","99.18","","","","","","NA"
"-89.32","48.37","THUNDER BAY A","6048262","2015-10-30 07:00","2015","10","30","07:00","1.1","","-1.6","","82","","31","","5","","24.1","","99.15","","","","","","Mostly Cloudy"
"-89.32","48.37","THUNDER BAY A","6048262","2015-10-30 08:00","2015","10","30","08:00","1.1","","-1.3","","84","","19","","9","","32.2","","99.17","","","","","","NA"
"-89.32","48.37","THUNDER BAY A","6048262","2015-10-30 09:00","2015","10","30","09:00","2.6","","-1.0","","77","","24","","11","","32.2","","99.17","","","","","","NA"
"-89.32","48.37","THUNDER BAY A","6048262","2015-10-30 10:00","2015","10","30","10:00","3.1","","-0.9","","75","","19","","10","","32.2","","99.13","","","","","","Mostly Cloudy"
"-89.32","48.37","THUNDER BAY A","6048262","2015-10-30 11:00","2015","10","30","11:00","4.1","","-0.9","","70","","18","","7","","32.2","","99.11","","","","","","NA"
"-89.32","48.37","THUNDER BAY A","6048262","2015-10-30 12:00","2015","10","30","12:00","5.0","","0.6","","73","","20","","16","","32.2","","99.05","","","","","","NA"
"-89.32","48.37","THUNDER BAY A","6048262","2015-10-30 13:00","2015","10","30","13:00","5.9","","1.4","","73","","21","","13","","32.2","","98.96","","","","","","Cloudy"
"-89.32","48.37","THUNDER BAY A","6048262","2015-10-30 14:00","2015","10","30","14:00","6.8","","2.1","","72","","19","","14","","32.2","","98.87","","","","","","NA"
"-89.32","48.37","THUNDER BAY A","6048262","2015-10-30 15:00","2015","10","30","15:00","6.2","","3.4","","82","","20","","19","","12.9","","98.81","","","","","","Rain Showers"
"-89.32","48.37","THUNDER BAY A","6048262","2015-10-30 16:00","2015","10","30","16:00","5.7","","4.5","","92","","19","","9","","9.7","","98.71","","","","","","Rain,Fog"
"-89.32","48.37","THUNDER BAY A","6048262","2015-10-30 17:00","2015","10","30","17:00","5.8","","4.5","","91","","17","","16","","24.1","","98.58","","","","","","Rain"
"-89.32","48.37","THUNDER BAY A","6048262","2015-10-30 18:00","2015","10","30","18:00","5.9","","4.1","","88","","23","","14","","24.1","","98.62","","","","","","NA"
"-89.32","48.37","THUNDER BAY A","6048262","2015-10-30 19:00","2015","10","30","19:00","5.0","","3.0","","87","","23","","10","","24.1","","98.58","","","","","","Cloudy"
"-89.32","48.37","THUNDER BAY A","6048262","2015-10-30 20:00","2015","10","30","20:00","4.3","","2.8","","90","","28","","5","","24.1","","98.57","","","","","","NA"
"-89.32","48.37","THUNDER BAY A","6048262","2015-10-30 21:00","2015","10","30","21:00","4.4","","3.1","","91","","36","","1","","24.1","","98.52","","","","","","NA"
"-89.32","48.37","THUNDER BAY A","6048262","2015-10-30 22:00","2015","10","30","22:00","3.8","","3.2","","96","","36","","1","","24.1","","98.48","","","","","","Cloudy"
"-89.32","48.37","THUNDER BAY A","6048262","2015-10-30 23:00","2015","10","30","23:00","4.2","","3.6","","96","","36","","3","","19.3","","98.42","","","","","","Rain"
"-89.32","48.37","THUNDER BAY A","6048262","2015-10-31 00:00","2015","10","31","00:00","5.4","","4.2","","92","","23","","8","","24.1","","98.37","","","","","","Rain"
"-89.32","48.37","THUNDER BAY A","6048262","2015-10-31 01:00","2015","10","31","01:00","6.8","","5.0","","88","","22","","12","","24.1","","98.37","","","","","","Rain"
"-89.32","48.37","THUNDER BAY A","6048262","2015-10-31 02:00","2015","10","31","02:00","6.7","","5.5","","92","","24","","7","","19.3","","98.34","","","","","","Rain"
"-89.32","48.37","THUNDER BAY A","6048262","2015-10-31 03:00","2015","10","31","03:00","7.2","","5.7","","90","","21","","12","","24.1","","98.36","","","","","","NA"
"-89.32","48.37","THUNDER BAY A","6048262","2015-10-31 04:00","2015","10","31","04:00","7.5","","5.7","","88","","23","","13","","24.1","","98.31","","","","","","Cloudy"
"-89.32","48.37","THUNDER BAY A","6048262","2015-10-31 05:00","2015","10","31","05:00","7.7","","5.7","","87","","21","","9","","24.1","","98.31","","","","","","NA"
"-89.32","48.37","THUNDER BAY A","6048262","2015-10-31 06:00","2015","10","31","06:00","7.6","","5.6","","87","","22","","8","","24.1","","98.27","","","","","","NA"
"-89.32","48.37","THUNDER BAY A","6048262","2015-10-31 07:00","2015","10","31","07:00","7.3","","5.6","","89","","15","","7","","24.1","","98.23","","","","","","Cloudy"
"-89.32","48.37","THUNDER BAY A","6048262","2015-10-31 08:00","2015","10","31","08:00","7.4","","5.6","","88","","21","","11","","24.1","","98.21","","","","","","NA"
"-89.32","48.37","THUNDER BAY A","6048262","2015-10-31 09:00","2015","10","31","09:00","7.7","","5.7","","87","","17","","5","","16.1","","98.17","","","","","","NA"
"-89.32","48.37","THUNDER BAY A","6048262","2015-10-31 10:00","2015","10","31","10:00","8.4","","6.0","","85","","21","","9","","24.1","","98.11","","","","","","Cloudy"
"-89.32","48.37","THUNDER BAY A","6048262","2015-10-31 11:00","2015","10","31","11:00","8.7","","6.3","","85","","17","","14","","16.1","","98.03","","","","","","NA"
"-89.32","48.37","THUNDER BAY A","6048262","2015-10-31 12:00","2015","10","31","12:00","7.9","","7.0","","94","","18","","10","","4.8","","97.99","","","","","","Drizzle,Fog"
"-89.32","48.37","THUNDER BAY A","6048262","2015-10-31 13:00","2015","10","31","13:00","7.8","","6.9","","94","","18","","8","","9.7","","97.89","","","","","","Rain,Fog"
"-89.32","48.37","THUNDER BAY A","6048262","2015-10-31 14:00","2015","10","31","14:00","8.3","","7.1","","92","","16","","7","","16.1","","97.75","","","","","","Rain"
"-89.32","48.37","THUNDER BAY A","6048262","2015-10-31 15:00","2015","10","31","15:00","8.0","","6.8","","92","","17","","7","","9.7","","97.65","","","","","","Rain"
"-89.32","48.37","THUNDER BAY A","6048262","2015-10-31 16:00","2015","10","31","16:00","7.9","","6.7","","92","","18","","9","","12.9","","97.57","","","","","","Rain"
"-89.32","48.37","THUNDER BAY A","6048262","2015-10-31 17:00","2015","10","31","17:00","7.6","","6.7","","94","","17","","8","","12.9","","97.51","","","","","","Rain"
"-89.32","48.37","THUNDER BAY A","6048262","2015-10-31 18:00","2015","10","31","18:00","7.3","","6.6","","95","","36","","2","","9.7","","97.45","","","","","","Rain,Fog"
"-89.32","48.37","THUNDER BAY A","6048262","2015-10-31 19:00","2015","10","31","19:00","7.1","","6.7","","97","","5","","5","","16.1","","97.37","","","","","","Rain"
"-89.32","48.37","THUNDER BAY A","6048262","2015-10-31 20:00","2015","10","31","20:00","6.9","","6.6","","98","","7","","7","","8.1","","97.29","","","","","","Rain,Fog"
"-89.32","48.37","THUNDER BAY A","6048262","2015-10-31 21:00","2015","10","31","21:00","7.2","","6.9","","98","","8","","5","","4.8","","97.21","","","","","","Rain,Fog"
"-89.32","48.37","THUNDER BAY A","6048262","2015-10-31 22:00","2015","10","31","22:00","6.7","","6.4","","98","","33","","4","","4.8","","97.18","","","","","","Fog"
"-89.32","48.37","THUNDER BAY A","6048262","2015-10-31 23:00","2015","10","31","23:00","6.6","","6.3","","98","","36","","1","","6.4","","97.15","","","","","","Rain,Fog"
